<kml xmlns="http://earth.google.com/kml/2.0"><Document>
	<name>SBF File: ..\fw_gnss3.sbf</name>
	<ScreenOverlay id="RxControl - Septentrio">
	<name>Septentrio Logo</name>
	<description></description>
	<Icon><href>https://www.septentrio.com/gfx/logo180x60_v2.gif</href></Icon>
	<overlayXY x="0.0" y="1.0" xunits="fraction" yunits="fraction"/>
	<screenXY x="0.0" y="1.0" xunits="fraction" yunits="fraction"/>
	<rotation>0.0</rotation>
	<size x="0" y="0" xunits="pixels" yunits="pixels"/>
	<color>caffffff</color>	</ScreenOverlay>
	<ScreenOverlay id="Color Legend">
	<name>Color Legend</name>
	<description></description>
	<Icon><href>https://www.septentrio.com/images/PVTModes4.png</href></Icon>
	<overlayXY x="0.0" y="1.0" xunits="fraction" yunits="fraction"/>
	<screenXY x="0.0" y="0.35" xunits="fraction" yunits="fraction"/>
	<rotation>0.0</rotation>
	<size x="0" y="0" xunits="pixels" yunits="pixels"/>
	<color>7affffff</color>	</ScreenOverlay>
	<Style id="radioFolderStyle"><ListStyle><listItemType>radioFolder</listItemType></ListStyle></Style>
	<Folder>
		<name>Color Legend: sbf2kml-2.9.0x
 Author: Septentrio (support@septentrio.com)</name>
		<Placemark>
			<name><![CDATA[<span style="color:#0000FF;"><b>Stand-Alone</b></span>]]></name>
			<styleUrl>#gv_legend</styleUrl>
			<visibility>1</visibility>
		</Placemark>
		<Placemark>
			<name><![CDATA[<span style="color:#FF9B14;"><b>Diff-PVT</b></span>]]></name>
			<styleUrl>#gv_legend</styleUrl>
			<visibility>1</visibility>
		</Placemark>
		<Placemark>
			<name><![CDATA[<span style="color:#917676;"><b>Fixed-Location</b></span>]]></name>
			<styleUrl>#gv_legend</styleUrl>
			<visibility>1</visibility>
		</Placemark>
		<Placemark>
			<name><![CDATA[<span style="color:#11FF11;"><b>RTK-fixed</b></span>]]></name>
			<styleUrl>#gv_legend</styleUrl>
			<visibility>1</visibility>
		</Placemark>
		<Placemark>
			<name><![CDATA[<span style="color:#710A7D;"><b>RTK-float</b></span>]]></name>
			<styleUrl>#gv_legend</styleUrl>
			<visibility>1</visibility>
		</Placemark>
		<Placemark>
			<name><![CDATA[<span style="color:#0AEBF7;"><b>SBAS Aided PVT</b></span>]]></name>
			<styleUrl>#gv_legend</styleUrl>
			<visibility>1</visibility>
		</Placemark>
	</Folder>
<!-- Start of pvt blocks reading -->
	<Folder>
		<name>Tracks/Wpnts for ..\fw_gnss3.sbf</name>
		<Placemark>
			<name>START</name>
				<LookAt>
					<longitude>12.517733</longitude>
					<latitude>55.779817</latitude>
					<altitude>41.935740</altitude>
				</LookAt>
			<TimeStamp>2026-03-05T08:50:28Z</TimeStamp>
			<Point>
				<coordinates>12.517733,55.779817,41.935740</coordinates>
				<altitudeMode>clampToGround</altitudeMode>
			</Point>
			<description>Start of logged file</description>
			<styleUrl>#start</styleUrl>
		</Placemark>
		<Placemark>
<!--M:6   S:805437697 -->
			<name><![CDATA[<span style="color:#0AEBF7;"><b>SBAS aided PVT (6)</b></span>]]></name>
			<Style>
				<LineStyle>
					<color>0xFFF7EB0A</color>
				</LineStyle>
			</Style>
			<MultiGeometry>
				<LineString>
					<altitudeMode>clampToGround</altitudeMode>
						<coordinates>
							12.5177333089,55.7798169495,41.9357401976
							12.5177325866,55.7798163875,42.0025316519
							12.5177320823,55.7798157056,42.0789491691
							12.5177312784,55.7798153197,42.1456842918
							12.5177311501,55.7798151939,42.1828335906
							12.5177322157,55.7798154243,42.1961063960
							12.5177329279,55.7798148926,42.1995921244
							12.5177332655,55.7798137934,42.2161331447
							12.5177317747,55.7798123371,42.2054288377
							12.5177330077,55.7798098445,42.2481344343
							12.5177303280,55.7798076279,42.1878525781
							12.5177304039,55.7798062680,42.1405025445
							12.5177282639,55.7798035922,42.0962326557
							12.5177281593,55.7798021183,41.9689416643
							12.5177265208,55.7798012807,41.9213359617
							12.5177251673,55.7798006957,41.7291139359
							12.5177235213,55.7797981752,41.5511808609
							12.5177212762,55.7797961091,41.4051314129
							12.5177170916,55.7797938360,41.3161446336
							12.5177155798,55.7797913548,41.1361762766
							12.5177105138,55.7797874805,41.0164887554
							12.5177101471,55.7797841186,41.0416588475
							12.5177067571,55.7797808383,41.0114467249
							12.5177037514,55.7797766260,41.0109694928
							12.5176998440,55.7797742549,41.1063917955
							12.5176925812,55.7797707954,41.1927173633
							12.5176826931,55.7797675407,41.3109458361
							12.5176699191,55.7797652896,41.4654267260
							12.5176543151,55.7797643673,41.4941451305
							12.5176380184,55.7797649753,41.5378626036
							12.5176221350,55.7797666781,41.5891975633
							12.5176083096,55.7797679084,41.6461413103
							12.5175943993,55.7797688514,41.5870818771
							12.5175781353,55.7797689104,41.6214865494
							12.5175617869,55.7797723556,41.5724193503
							12.5175483113,55.7797761712,41.4728765105
							12.5175351221,55.7797776366,41.3302863114
							12.5175222420,55.7797778066,41.2360805123
							12.5175078123,55.7797793460,41.1852615745
							12.5174949797,55.7797811412,41.1403314476
							12.5174835895,55.7797828290,41.1282708047
							12.5174701740,55.7797854408,41.0612870773
							12.5174602123,55.7797877022,41.0329844840
							12.5174487341,55.7797901539,41.0120289928
							12.5174346512,55.7797928213,41.0876011479
							12.5174213279,55.7797942844,41.1915988081
							12.5174068430,55.7797955978,41.1908053696
							12.5173920888,55.7797964187,41.1870237199
							12.5173797697,55.7797984985,41.1143363402
							12.5173689937,55.7798012134,41.0740463220
							12.5173582289,55.7798046688,40.9807420440
							12.5173435169,55.7798082206,40.9490491805
							12.5173287960,55.7798113453,40.9539882665
							12.5173138363,55.7798140585,40.8881697913
							12.5173016163,55.7798188670,40.9873288707
							12.5172890548,55.7798229917,40.9798689570
							12.5172769248,55.7798256060,41.0102520230
							12.5172638306,55.7798278734,41.0194330936
							12.5172506567,55.7798312349,41.0352964998
							12.5172357437,55.7798354621,41.0047286401
							12.5172207392,55.7798387149,41.1002547256
							12.5172071270,55.7798402048,41.1917290778
							12.5171921488,55.7798423855,41.3284946912
							12.5171778435,55.7798450468,41.3644879781
							12.5171643674,55.7798472740,41.3827513374
							12.5171506997,55.7798498789,41.3899128439
							12.5171391869,55.7798516308,41.3238210552
							12.5171289501,55.7798526994,41.3206751673
							12.5171214921,55.7798545864,41.2247000700
							12.5171130980,55.7798558507,41.1798469851
							12.5170996198,55.7798586904,41.1459320998
							12.5170866221,55.7798618178,41.2110298707
							12.5170745907,55.7798637183,41.1424287891
							12.5170615459,55.7798653808,41.0812894844
							12.5170513086,55.7798670583,40.9858705249
							12.5170397848,55.7798689158,40.9306233314
							12.5170282286,55.7798713727,40.9861968299
							12.5170170056,55.7798741950,40.9918963458
							12.5170037345,55.7798754513,41.0358157872
							12.5169913649,55.7798770231,41.0566141629
							12.5169785092,55.7798805536,40.9865914749
							12.5169651126,55.7798846711,41.0190620450
							12.5169495287,55.7798879974,41.0692889784
							12.5169343320,55.7798904444,41.0907840803
							12.5169200303,55.7798944965,41.0855803080
							12.5169058352,55.7798974788,41.0843078907
							12.5168949077,55.7798987273,41.0912237469
							12.5168852706,55.7799005764,41.0089510629
							12.5168760775,55.7799029272,40.9908229698
							12.5168688584,55.7799035925,40.9183965818
							12.5168602438,55.7799041722,40.8430281168
							12.5168480229,55.7799047597,40.7420966170
							12.5168343370,55.7799075083,40.7766363191
							12.5168223909,55.7799087855,40.7409414218
							12.5168086975,55.7799102832,40.7505901749
							12.5167945306,55.7799130217,40.7685680497
							12.5167810240,55.7799155714,40.7604119848
							12.5167665995,55.7799193795,40.6394907889
							12.5167536461,55.7799218371,40.6252488742
							12.5167391108,55.7799250598,40.5342084430
							12.5167259846,55.7799270131,40.5967041917
							12.5167135583,55.7799289440,40.6513967006
							12.5166993088,55.7799317681,40.7453566110
							12.5166882010,55.7799337769,40.8773798538
							12.5166775677,55.7799353899,40.9029418268
							12.5166649750,55.7799366922,40.9059889105
							12.5166557031,55.7799390774,40.8057933047
							12.5166430799,55.7799422071,40.7495981701
							12.5166330924,55.7799442089,40.8368773280
							12.5166188630,55.7799473553,40.7213205281
							12.5166036457,55.7799503094,40.7478806976
							12.5165888030,55.7799524574,40.7776853703
							12.5165775852,55.7799561245,40.7013112748
							12.5165675122,55.7799588327,40.7525815716
							12.5165568094,55.7799613550,40.7460249661
							12.5165442991,55.7799650330,40.7411136905
							12.5165308628,55.7799686570,40.6837466492
							12.5165179195,55.7799699036,40.6203671903
							12.5165073249,55.7799716919,40.6577508072
							12.5165005435,55.7799751547,40.6573344806
							12.5164925457,55.7799762313,40.6998326194
							12.5164833769,55.7799778551,40.6974149470
							12.5164693949,55.7799787882,40.6299883292
							12.5164540046,55.7799791246,40.7228317533
							12.5164379781,55.7799805817,40.6884341951
							12.5164232625,55.7799825528,40.7556652836
							12.5164110616,55.7799843149,40.8075534173
							12.5163990762,55.7799867167,40.8874824749
							12.5163876328,55.7799905582,40.8938092797
							12.5163760842,55.7799937391,40.8301774647
							12.5163646095,55.7799958184,40.7885452592
							12.5163505736,55.7799979790,40.7380308941
							12.5163367377,55.7800002005,40.7485684517
							12.5163235457,55.7800015398,40.7466125204
							12.5163098560,55.7800028926,40.8006288592
							12.5162964219,55.7800045596,40.7889073798
							12.5162839312,55.7800073260,40.8057811413
							12.5162692718,55.7800101220,40.8376125671
							12.5162520408,55.7800129314,40.8404313374
							12.5162348551,55.7800169317,40.9398994530
							12.5162187768,55.7800211510,40.8451224561
							12.5162068724,55.7800241502,40.7824320619
							12.5161904530,55.7800287531,40.6988119322
							12.5161778073,55.7800338620,40.7845863377
							12.5161621817,55.7800377030,40.7236921867
							12.5161477933,55.7800402978,40.6782498915
							12.5161338828,55.7800427717,40.6060465263
							12.5161189269,55.7800455334,40.6070581991
							12.5161067504,55.7800473475,40.5347182889
							12.5160934622,55.7800502394,40.5634403547
							12.5160802587,55.7800531612,40.5267130837
							12.5160658175,55.7800563340,40.5812348289
							12.5160491883,55.7800590450,40.5805241192
							12.5160322751,55.7800602530,40.6388303923
							12.5160166227,55.7800628500,40.8359420409
							12.5159987066,55.7800658360,40.8330785004
							12.5159825131,55.7800671362,41.0029789449
							12.5159659200,55.7800701763,41.1400123357
							12.5159524281,55.7800714199,41.2778616776
							12.5159386572,55.7800732138,41.2735658157
							12.5159246541,55.7800754504,41.2412059509
							12.5159125961,55.7800792583,41.2311105473
							12.5159006621,55.7800837851,41.2765963657
							12.5158872339,55.7800879359,41.2649457914
							12.5158708773,55.7800894838,41.3045450815
							12.5158539704,55.7800904136,41.7125379629
							12.5158354446,55.7800904373,41.8834736453
							12.5158175285,55.7800914782,41.9397569262
							12.5158002263,55.7800933491,42.2451784058
							12.5157818813,55.7800947936,42.2401959848
							12.5157679884,55.7800968394,42.2549845963
							12.5157538693,55.7800985802,42.4754379695

						</coordinates>
					<tessellate>1</tessellate>
				</LineString>
			</MultiGeometry>
			<description>
<![CDATA[<span style="color:#222222;"><b>-First Epoch:</b></span><br>TOW=[377428000ms]<br>PVT Mode=6<br>NrSv=29<br> 	BaseStationID=121<br>meanCorrAge=183<br>]]><![CDATA[<br>]]>
<![CDATA[<span style="color:#222222;"><b>-Last Epoch:</b></span><br>TOW=[377600000ms]<br>PVT Mode=1<br>NrSv=35<br> ]]><![CDATA[<br>]]>

			</description>
		</Placemark>
		<Placemark>
<!--M:1   S:270665997 -->
			<name><![CDATA[<span style="color:#0000FF;"><b>Stand-Alone PVT (1)</b></span>]]></name>
			<Style>
				<LineStyle>
					<color>0xFFFF0000</color>
				</LineStyle>
			</Style>
			<MultiGeometry>
				<LineString>
					<altitudeMode>clampToGround</altitudeMode>
						<coordinates>
							12.5157397472,55.7800997591,42.4554667370
							12.5157264123,55.7801008029,42.3340087206
							12.5157137115,55.7801017440,42.4003617811
							12.5156989197,55.7801008582,42.4812201066
							12.5156865268,55.7801001328,42.6276215811
							12.5156771662,55.7801001781,42.7143598479
							12.5156665417,55.7801040202,42.8824016587
							12.5156534242,55.7801086769,42.9837569795
							12.5156411491,55.7801127908,43.0993814986
							12.5156262633,55.7801177102,43.3201482689
							12.5156138292,55.7801215710,43.3847042616
							12.5156046616,55.7801246876,43.5277012842
							12.5155978583,55.7801277303,43.6639400564
							12.5155917948,55.7801324446,43.7737096212
							12.5155830323,55.7801362297,43.9443638993
							12.5155752835,55.7801386076,43.9114257469
							12.5155638002,55.7801409075,43.8781051419
							12.5155520535,55.7801436620,43.8958722734
							12.5155428191,55.7801474467,43.9669478758
							12.5155337259,55.7801500181,43.9271246093
							12.5155261716,55.7801539405,43.8817999565
							12.5155181629,55.7801605751,43.8345291185
							12.5155089758,55.7801653097,43.8138395340
							12.5155002842,55.7801715563,43.9340051793

						</coordinates>
					<tessellate>1</tessellate>
				</LineString>
			</MultiGeometry>
			<description>
<![CDATA[<span style="color:#222222;"><b>-First Epoch:</b></span><br>TOW=[377600000ms]<br>PVT Mode=1<br>NrSv=35<br> ]]><![CDATA[<br>]]>
<![CDATA[<span style="color:#222222;"><b>-Last Epoch:</b></span><br>TOW=[377624000ms]<br>PVT Mode=6<br>NrSv=35<br> 	BaseStationID=121<br>meanCorrAge=140<br>]]><![CDATA[<br>]]>

			</description>
		</Placemark>
		<Placemark>
<!--M:6   S:268566785 -->
			<name><![CDATA[<span style="color:#0AEBF7;"><b>SBAS aided PVT (6)</b></span>]]></name>
			<Style>
				<LineStyle>
					<color>0xFFF7EB0A</color>
				</LineStyle>
			</Style>
			<MultiGeometry>
				<LineString>
					<altitudeMode>clampToGround</altitudeMode>
						<coordinates>
							12.5154958916,55.7801821481,43.7878701034
							12.5154875320,55.7801930606,43.6823864196
							12.5154793072,55.7801987248,43.7368978528
							12.5154706909,55.7802014873,43.8289437393
							12.5154604202,55.7802051646,44.0175141161
							12.5154520202,55.7802098864,44.1852278747
							12.5154421314,55.7802185882,44.5044359823
							12.5154312925,55.7802282160,44.8919716441
							12.5154201752,55.7802357179,45.2120141333
							12.5154095471,55.7802406639,45.4099294628
							12.5153990025,55.7802472944,45.5402619875
							12.5153871412,55.7802541484,45.7163321658
							12.5153806131,55.7802609435,45.5755271884
							12.5153710469,55.7802665225,45.4661763917
							12.5153619497,55.7802739756,45.3535443439
							12.5153559302,55.7802802409,45.3076251011
							12.5153489647,55.7802868639,45.2095977731

						</coordinates>
					<tessellate>1</tessellate>
				</LineString>
			</MultiGeometry>
			<description>
<![CDATA[<span style="color:#222222;"><b>-First Epoch:</b></span><br>TOW=[377624000ms]<br>PVT Mode=6<br>NrSv=35<br> 	BaseStationID=121<br>meanCorrAge=140<br>]]><![CDATA[<br>]]>
<![CDATA[<span style="color:#222222;"><b>-Last Epoch:</b></span><br>TOW=[377641000ms]<br>PVT Mode=1<br>NrSv=34<br> ]]><![CDATA[<br>]]>

			</description>
		</Placemark>
		<Placemark>
<!--M:1   S:807536901 -->
			<name><![CDATA[<span style="color:#0000FF;"><b>Stand-Alone PVT (1)</b></span>]]></name>
			<Style>
				<LineStyle>
					<color>0xFFFF0000</color>
				</LineStyle>
			</Style>
			<MultiGeometry>
				<LineString>
					<altitudeMode>clampToGround</altitudeMode>
						<coordinates>
							12.5153442438,55.7802931135,45.1413919651
							12.5153422664,55.7802976690,45.1425760125
							12.5153385648,55.7803007464,45.0307399943
							12.5153370230,55.7803046428,44.9948912901
							12.5153346865,55.7803092550,44.9222336138
							12.5153299584,55.7803153978,44.9606800748
							12.5153280836,55.7803221684,44.8722215556
							12.5153250854,55.7803271106,44.8291786206
							12.5153197211,55.7803339335,44.7219869151
							12.5153151629,55.7803427341,44.7664888168
							12.5153138105,55.7803517519,44.8188900791
							12.5153143904,55.7803585708,44.9248347377
							12.5153179661,55.7803657944,44.9397565160
							12.5153212916,55.7803737159,44.9332184524
							12.5153247558,55.7803825301,44.8164936609
							12.5153285487,55.7803910010,44.8936908391
							12.5153344154,55.7803993831,44.9230177294
							12.5153408124,55.7804063613,45.0229817956
							12.5153455147,55.7804143912,44.9033598210
							12.5153512642,55.7804228479,44.9033921598
							12.5153599273,55.7804303520,44.8976382833
							12.5153650071,55.7804384607,44.9764906707
							12.5153693795,55.7804474139,45.0113001698
							12.5153759068,55.7804581260,45.0415086452
							12.5153780410,55.7804676475,45.2237300498
							12.5153815722,55.7804776494,45.2327339523
							12.5153801188,55.7804894054,45.2121163973

						</coordinates>
					<tessellate>1</tessellate>
				</LineString>
			</MultiGeometry>
			<description>
<![CDATA[<span style="color:#222222;"><b>-First Epoch:</b></span><br>TOW=[377641000ms]<br>PVT Mode=1<br>NrSv=34<br> ]]><![CDATA[<br>]]>
<![CDATA[<span style="color:#222222;"><b>-Last Epoch:</b></span><br>TOW=[377668000ms]<br>PVT Mode=6<br>NrSv=36<br> 	BaseStationID=121<br>meanCorrAge=140<br>]]><![CDATA[<br>]]>

			</description>
		</Placemark>
		<Placemark>
<!--M:6   S:268566785 -->
			<name><![CDATA[<span style="color:#0AEBF7;"><b>SBAS aided PVT (6)</b></span>]]></name>
			<Style>
				<LineStyle>
					<color>0xFFF7EB0A</color>
				</LineStyle>
			</Style>
			<MultiGeometry>
				<LineString>
					<altitudeMode>clampToGround</altitudeMode>
						<coordinates>
							12.5153817294,55.7805003427,45.1392838139
							12.5153852653,55.7805137109,45.1005164676
							12.5153883132,55.7805288028,45.0982418384
							12.5153907995,55.7805407500,45.1623757809
							12.5153954510,55.7805493128,45.0388741608
							12.5154016649,55.7805575800,45.0242250304
							12.5154054429,55.7805651149,44.8931383450
							12.5154075436,55.7805726724,44.7450199937
							12.5154134347,55.7805797086,44.6250865780
							12.5154194079,55.7805871602,44.6522391529
							12.5154224478,55.7805957320,44.5314930903
							12.5154284417,55.7806047781,44.5920388963
							12.5154374710,55.7806136688,44.6930696633
							12.5154479727,55.7806221932,44.8062603372
							12.5154565162,55.7806297043,44.8500052531
							12.5154620892,55.7806379627,44.7376738818
							12.5154661184,55.7806467368,44.6622781030
							12.5154701078,55.7806554594,44.6452039979
							12.5154717390,55.7806650687,44.7153768196
							12.5154741463,55.7806751478,44.6687712533
							12.5154780190,55.7806849024,44.7913238095
							12.5154827478,55.7806949272,44.7927517249
							12.5154861260,55.7807016985,44.8814578432
							12.5154894221,55.7807092721,44.9182249852
							12.5154903240,55.7807174061,44.8742490953
							12.5154917171,55.7807258198,44.8575808534
							12.5154965306,55.7807345768,44.8481565625
							12.5155017240,55.7807429445,44.8362102946
							12.5155059529,55.7807515688,44.9356524712
							12.5155079072,55.7807610899,44.8555271337
							12.5155105112,55.7807694156,44.9557976843
							12.5155113616,55.7807782904,44.8510979567
							12.5155123844,55.7807861329,44.8088337636
							12.5155156745,55.7807939904,44.7685897684
							12.5155179504,55.7808015150,44.7395441006
							12.5155180053,55.7808103460,44.8070189649
							12.5155175690,55.7808175968,44.8467178933
							12.5155148730,55.7808245774,44.9473581025
							12.5155104438,55.7808325232,45.0460994913
							12.5155085229,55.7808397345,45.0738090189
							12.5155096706,55.7808448514,45.0885075068
							12.5155110140,55.7808495527,45.0197998837
							12.5155121048,55.7808549281,44.9835605712
							12.5155117481,55.7808563921,44.9247095087
							12.5155093862,55.7808545340,44.8650550828
							12.5155092557,55.7808523378,44.8214278280
							12.5155067312,55.7808505460,44.7131118736
							12.5155060645,55.7808498020,44.6516415274
							12.5155057588,55.7808500557,44.6197460761
							12.5155060934,55.7808504021,44.5613603042
							12.5155059706,55.7808501325,44.5323898566
							12.5155058338,55.7808502108,44.5594896446
							12.5155057821,55.7808500589,44.5999013595
							12.5155062090,55.7808498302,44.6343540851
							12.5155057855,55.7808507021,44.6411919049
							12.5155061493,55.7808508394,44.6558228893

						</coordinates>
					<tessellate>1</tessellate>
				</LineString>
			</MultiGeometry>
			<description>
<![CDATA[<span style="color:#222222;"><b>-First Epoch:</b></span><br>TOW=[377668000ms]<br>PVT Mode=6<br>NrSv=36<br> 	BaseStationID=121<br>meanCorrAge=140<br>]]><![CDATA[<br>]]>
<![CDATA[<span style="color:#222222;"><b>-Last Epoch:</b></span><br>TOW=[377724000ms]<br>PVT Mode=1<br>NrSv=36<br> ]]><![CDATA[<br>]]>

			</description>
		</Placemark>
		<Placemark>
<!--M:1   S:807536901 -->
			<name><![CDATA[<span style="color:#0000FF;"><b>Stand-Alone PVT (1)</b></span>]]></name>
			<Style>
				<LineStyle>
					<color>0xFFFF0000</color>
				</LineStyle>
			</Style>
			<MultiGeometry>
				<LineString>
					<altitudeMode>clampToGround</altitudeMode>
						<coordinates>
							12.5155088686,55.7808500429,44.6868288033
							12.5155159224,55.7808493124,44.6416008949
							12.5155195942,55.7808490144,44.5575614320
							12.5155223096,55.7808481890,44.4814346494
							12.5155215762,55.7808486894,44.4336405880
							12.5155208273,55.7808491251,44.4075057759
							12.5155193078,55.7808493394,44.3634921808
							12.5155180850,55.7808482812,44.3978574032
							12.5155176267,55.7808488160,44.4360724949
							12.5155190122,55.7808528517,44.4657069268
							12.5155173065,55.7808606215,44.5028578299
							12.5155165296,55.7808690517,44.5679648639
							12.5155160158,55.7808779715,44.6766649062
							12.5155152593,55.7808859472,44.7458199401
							12.5155179564,55.7808951046,44.9325393830
							12.5155206869,55.7809052826,45.0055755071
							12.5155208508,55.7809143514,45.2363741817
							12.5155182717,55.7809237365,45.2356981593
							12.5155173003,55.7809333495,45.2032464761
							12.5155181742,55.7809422777,45.3876987199
							12.5155225817,55.7809541489,45.3640783865
							12.5155269012,55.7809654286,45.3667651609
							12.5155311364,55.7809764110,45.2584949170
							12.5155335035,55.7809866322,45.1358303700
							12.5155387116,55.7809942201,45.1453743497
							12.5155435157,55.7810013913,45.1996311492
							12.5155472561,55.7810098184,45.0446441737
							12.5155470019,55.7810178050,44.9020862658
							12.5155497214,55.7810262280,44.8696115009

						</coordinates>
					<tessellate>1</tessellate>
				</LineString>
			</MultiGeometry>
			<description>
<![CDATA[<span style="color:#222222;"><b>-First Epoch:</b></span><br>TOW=[377724000ms]<br>PVT Mode=1<br>NrSv=36<br> ]]><![CDATA[<br>]]>
<![CDATA[<span style="color:#222222;"><b>-Last Epoch:</b></span><br>TOW=[377753000ms]<br>PVT Mode=6<br>NrSv=36<br> 	BaseStationID=121<br>meanCorrAge=150<br>]]><![CDATA[<br>]]>

			</description>
		</Placemark>
		<Placemark>
<!--M:6   S:269615361 -->
			<name><![CDATA[<span style="color:#0AEBF7;"><b>SBAS aided PVT (6)</b></span>]]></name>
			<Style>
				<LineStyle>
					<color>0xFFF7EB0A</color>
				</LineStyle>
			</Style>
			<MultiGeometry>
				<LineString>
					<altitudeMode>clampToGround</altitudeMode>
						<coordinates>
							12.5155507214,55.7810345100,44.8241179588
							12.5155479787,55.7810436733,44.9483354640
							12.5155461357,55.7810509814,44.9469792000
							12.5155442665,55.7810557679,45.0952153033
							12.5155438318,55.7810584028,45.2309269321
							12.5155424995,55.7810617307,45.4095790722
							12.5155430400,55.7810662560,45.6881593462
							12.5155507830,55.7810662946,45.9173943624
							12.5155549607,55.7810673984,46.1182077700
							12.5155647213,55.7810699873,46.4154430099
							12.5155725356,55.7810752352,46.7354148660
							12.5155769567,55.7810812895,47.1073795011
							12.5155769577,55.7810856387,47.2158679226
							12.5155712798,55.7810919479,47.2546150061
							12.5155647498,55.7810978462,47.2791052095
							12.5155637432,55.7811043135,46.9432128699
							12.5155637984,55.7811129138,46.4499943299
							12.5155662431,55.7811215812,46.1437163998
							12.5155695568,55.7811319022,45.8803319786
							12.5155743035,55.7811430502,45.5683959687
							12.5155804525,55.7811537270,45.3953705306
							12.5155865750,55.7811631678,45.4560534146
							12.5155925524,55.7811726500,45.5212353753
							12.5155975062,55.7811829756,45.4969514871
							12.5156021615,55.7811942182,45.5567621741
							12.5156054374,55.7812050510,45.6808076279
							12.5156113245,55.7812149044,45.7756505940
							12.5156201103,55.7812250842,45.8948586631
							12.5156258735,55.7812359473,45.9207684223
							12.5156299327,55.7812469133,45.9267432626
							12.5156361987,55.7812569527,45.9599686348
							12.5156451553,55.7812649150,45.7946345242
							12.5156526085,55.7812735132,45.5929224702
							12.5156604891,55.7812814135,45.4870512277
							12.5156652866,55.7812897815,45.3753102521
							12.5156726127,55.7812994108,45.3418824696
							12.5156776409,55.7813072112,45.3894899598
							12.5156821384,55.7813163427,45.3002468225
							12.5156855965,55.7813267917,45.0677475490
							12.5156884735,55.7813396181,45.0171905039
							12.5156918467,55.7813520536,44.8370326691
							12.5156956651,55.7813631066,44.7349284382
							12.5157019593,55.7813737237,44.7993356988
							12.5157079143,55.7813844425,44.8419751023
							12.5157157863,55.7813937756,45.0124293703
							12.5157257225,55.7814020817,45.1467047612
							12.5157372463,55.7814108968,45.3364596811
							12.5157503273,55.7814191697,45.4591873337

						</coordinates>
					<tessellate>1</tessellate>
				</LineString>
			</MultiGeometry>
			<description>
<![CDATA[<span style="color:#222222;"><b>-First Epoch:</b></span><br>TOW=[377753000ms]<br>PVT Mode=6<br>NrSv=36<br> 	BaseStationID=121<br>meanCorrAge=150<br>]]><![CDATA[<br>]]>
<![CDATA[<span style="color:#222222;"><b>-Last Epoch:</b></span><br>TOW=[377801000ms]<br>PVT Mode=1<br>NrSv=37<br> ]]><![CDATA[<br>]]>

			</description>
		</Placemark>
		<Placemark>
<!--M:1   S:807536909 -->
			<name><![CDATA[<span style="color:#0000FF;"><b>Stand-Alone PVT (1)</b></span>]]></name>
			<Style>
				<LineStyle>
					<color>0xFFFF0000</color>
				</LineStyle>
			</Style>
			<MultiGeometry>
				<LineString>
					<altitudeMode>clampToGround</altitudeMode>
						<coordinates>
							12.5157642563,55.7814265883,45.3673353218
							12.5157827296,55.7814318419,45.0954234163
							12.5157981555,55.7814366822,44.9477240944

						</coordinates>
					<tessellate>1</tessellate>
				</LineString>
			</MultiGeometry>
			<description>
<![CDATA[<span style="color:#222222;"><b>-First Epoch:</b></span><br>TOW=[377801000ms]<br>PVT Mode=1<br>NrSv=37<br> ]]><![CDATA[<br>]]>
<![CDATA[<span style="color:#222222;"><b>-Last Epoch:</b></span><br>TOW=[377804000ms]<br>PVT Mode=6<br>NrSv=36<br> 	BaseStationID=121<br>meanCorrAge=140<br>]]><![CDATA[<br>]]>

			</description>
		</Placemark>
		<Placemark>
<!--M:6   S:268566785 -->
			<name><![CDATA[<span style="color:#0AEBF7;"><b>SBAS aided PVT (6)</b></span>]]></name>
			<Style>
				<LineStyle>
					<color>0xFFF7EB0A</color>
				</LineStyle>
			</Style>
			<MultiGeometry>
				<LineString>
					<altitudeMode>clampToGround</altitudeMode>
						<coordinates>
							12.5158105646,55.7814427271,44.9306305543
							12.5158156816,55.7814509520,44.8992239979
							12.5158211682,55.7814622686,44.7635797607
							12.5158322513,55.7814702151,44.5863687664
							12.5158471467,55.7814739066,44.5963323036
							12.5158595302,55.7814790717,44.7387890298
							12.5158707711,55.7814852889,45.0629059646
							12.5158827689,55.7814921340,45.2643029960
							12.5158960199,55.7814980914,45.2870826625
							12.5159132195,55.7814979080,45.2260038881
							12.5159309975,55.7814967701,45.3628082884
							12.5159490312,55.7814965689,45.2594874868
							12.5159637467,55.7814968537,45.1826506564
							12.5159772099,55.7814976696,45.0828551028
							12.5159943765,55.7814971197,45.1522198062
							12.5160126032,55.7814990421,45.2266943011
							12.5160300653,55.7815026895,45.1942553099
							12.5160467962,55.7815068785,45.0398008278
							12.5160623928,55.7815127341,44.8447545867
							12.5160765982,55.7815187770,44.8041341350
							12.5160918786,55.7815239470,44.9529677870
							12.5161097088,55.7815298474,45.0519836375
							12.5161257721,55.7815350445,45.1467794393
							12.5161401331,55.7815391056,45.0237404623
							12.5161514526,55.7815409397,45.0925290594
							12.5161631351,55.7815427156,45.1208868813
							12.5161781429,55.7815437452,45.0017668864
							12.5161930603,55.7815441577,44.8025112896
							12.5162058673,55.7815389937,44.6614809841
							12.5162207820,55.7815330064,44.6517889892
							12.5162397158,55.7815280697,44.7448625983
							12.5162613449,55.7815220677,44.9241536894
							12.5162817778,55.7815165599,45.0844031575

						</coordinates>
					<tessellate>1</tessellate>
				</LineString>
			</MultiGeometry>
			<description>
<![CDATA[<span style="color:#222222;"><b>-First Epoch:</b></span><br>TOW=[377804000ms]<br>PVT Mode=6<br>NrSv=36<br> 	BaseStationID=121<br>meanCorrAge=140<br>]]><![CDATA[<br>]]>
<![CDATA[<span style="color:#222222;"><b>-Last Epoch:</b></span><br>TOW=[377837000ms]<br>PVT Mode=1<br>NrSv=36<br> ]]><![CDATA[<br>]]>

			</description>
		</Placemark>
		<Placemark>
<!--M:1   S:807536909 -->
			<name><![CDATA[<span style="color:#0000FF;"><b>Stand-Alone PVT (1)</b></span>]]></name>
			<Style>
				<LineStyle>
					<color>0xFFFF0000</color>
				</LineStyle>
			</Style>
			<MultiGeometry>
				<LineString>
					<altitudeMode>clampToGround</altitudeMode>
						<coordinates>
							12.5163007010,55.7815125339,45.2506532169
							12.5163209417,55.7815086615,45.3560793948
							12.5163398727,55.7815062933,45.4624600649
							12.5163655981,55.7815046350,45.4814848195
							12.5163911255,55.7815048328,45.5636566095
							12.5164152867,55.7815052127,45.6107865621
							12.5164370016,55.7815062927,45.7086676046
							12.5164535477,55.7815080180,45.7841650695
							12.5164667775,55.7815106291,45.9104225164
							12.5164793389,55.7815114508,46.0555868114
							12.5164914331,55.7815108771,46.1273377710
							12.5165087057,55.7815113219,46.1541207043
							12.5165290382,55.7815119327,46.3834158983
							12.5165491592,55.7815107594,46.5469721704
							12.5165690422,55.7815078612,46.5361796429
							12.5165864558,55.7815047661,46.5264887355
							12.5166113346,55.7815049583,46.5069184586
							12.5166360183,55.7815078765,46.3541280560
							12.5166601936,55.7815126840,46.2813889586
							12.5166847801,55.7815171385,46.3617211003
							12.5167079386,55.7815190493,46.5834479085
							12.5167295597,55.7815202525,46.7322805703
							12.5167527439,55.7815226753,46.8619534306
							12.5167755425,55.7815227434,46.8099538750
							12.5167977523,55.7815217865,46.6899250056
							12.5168181494,55.7815225280,46.5113387506
							12.5168404775,55.7815240380,46.3208168339
							12.5168564962,55.7815310134,45.9820138868
							12.5168715126,55.7815393328,45.5920911511
							12.5168846860,55.7815457993,45.2302622590
							12.5168949802,55.7815518888,45.0344587176
							12.5169071625,55.7815570396,45.0025218942
							12.5169193658,55.7815618020,45.1586963853
							12.5169314608,55.7815688776,45.4270661516
							12.5169404954,55.7815757398,45.7100815998
							12.5169501408,55.7815843746,45.8453835779

						</coordinates>
					<tessellate>1</tessellate>
				</LineString>
			</MultiGeometry>
			<description>
<![CDATA[<span style="color:#222222;"><b>-First Epoch:</b></span><br>TOW=[377837000ms]<br>PVT Mode=1<br>NrSv=36<br> ]]><![CDATA[<br>]]>
<![CDATA[<span style="color:#222222;"><b>-Last Epoch:</b></span><br>TOW=[377873000ms]<br>PVT Mode=6<br>NrSv=35<br> 	BaseStationID=121<br>meanCorrAge=160<br>]]><![CDATA[<br>]]>

			</description>
		</Placemark>
		<Placemark>
<!--M:6   S:268566785 -->
			<name><![CDATA[<span style="color:#0AEBF7;"><b>SBAS aided PVT (6)</b></span>]]></name>
			<Style>
				<LineStyle>
					<color>0xFFF7EB0A</color>
				</LineStyle>
			</Style>
			<MultiGeometry>
				<LineString>
					<altitudeMode>clampToGround</altitudeMode>
						<coordinates>
							12.5169603213,55.7815944905,45.7853134050
							12.5169669048,55.7816043120,45.5497237449
							12.5169742757,55.7816155432,45.3883519586
							12.5169857116,55.7816274602,45.5805093483
							12.5169897451,55.7816363255,45.6269901833
							12.5169969459,55.7816449758,45.7092897063
							12.5170046231,55.7816556628,45.7099241635
							12.5170161781,55.7816686519,45.8082129140
							12.5170195520,55.7816802462,45.8102161497
							12.5170214847,55.7816922493,45.8819725495
							12.5170246738,55.7817017860,45.8356417228
							12.5170289681,55.7817097351,45.8074771598
							12.5170345075,55.7817179107,45.8046965328
							12.5170376304,55.7817268529,45.8050368325
							12.5170340655,55.7817349613,45.6474930367
							12.5170302083,55.7817424968,45.4844828396
							12.5170228566,55.7817494314,45.4088739395
							12.5170146056,55.7817537869,45.6153642536
							12.5170058903,55.7817538779,45.8286278268
							12.5169974839,55.7817568247,46.1376300784
							12.5169982976,55.7817647708,46.1418668863
							12.5170018232,55.7817670328,45.9245890390
							12.5170120365,55.7817721885,45.9306320006
							12.5170227917,55.7817797474,46.1783252283
							12.5170280652,55.7817847392,46.3864939832
							12.5170304113,55.7817882021,46.5563247566
							12.5170338271,55.7817906826,46.5642666273
							12.5170365562,55.7817889841,46.5781768668
							12.5170403665,55.7817832004,46.6014911915
							12.5170396827,55.7817789976,46.4770053925
							12.5170376959,55.7817774334,46.3437354602
							12.5170382120,55.7817777980,46.1297239195
							12.5170374784,55.7817816978,45.9235702180
							12.5170390385,55.7817859136,45.6821540174
							12.5170440225,55.7817904739,45.4761181850
							12.5170485767,55.7817955936,45.2626329530
							12.5170539119,55.7818016968,45.0402677492
							12.5170596995,55.7818086718,44.9149362672
							12.5170662482,55.7818165228,44.8382768245
							12.5170720649,55.7818247499,44.7641817770
							12.5170754135,55.7818356466,44.8123202104
							12.5170795515,55.7818479452,45.0931770357
							12.5170834599,55.7818563505,45.1436042812
							12.5170881333,55.7818630622,45.1610234625
							12.5170959654,55.7818715268,45.2859208437
							12.5171018981,55.7818790791,45.4110041389
							12.5171048179,55.7818876035,45.4711628821
							12.5171071997,55.7818945614,45.4229853176
							12.5171116875,55.7819019163,45.4830602192
							12.5171159167,55.7819096201,45.4817529933
							12.5171191875,55.7819169526,45.4509796996
							12.5171226009,55.7819253804,45.3942817662
							12.5171280952,55.7819341391,45.2960335005
							12.5171322898,55.7819416381,45.1813758717
							12.5171375955,55.7819485371,45.1148435466
							12.5171444279,55.7819549649,45.0816312813
							12.5171496929,55.7819629911,44.9518592352
							12.5171553214,55.7819703945,44.9505315362
							12.5171611863,55.7819792088,45.0922506670
							12.5171683837,55.7819888679,45.0307705302
							12.5171749406,55.7819975641,44.9003542593
							12.5171797637,55.7820055427,44.8638971384
							12.5171833562,55.7820140340,44.9568972444
							12.5171880606,55.7820225418,45.0399735921
							12.5171913507,55.7820312285,44.9224531261
							12.5171944938,55.7820395572,44.9846123014
							12.5171971391,55.7820482512,45.0637681713
							12.5172033206,55.7820564888,45.0613264410
							12.5172114391,55.7820609189,45.2975540968
							12.5172163892,55.7820678511,45.5024086339
							12.5172208721,55.7820771314,45.4994360190
							12.5172239859,55.7820856480,45.6913663825
							12.5172261241,55.7820942200,45.8657939456
							12.5172361637,55.7821005194,45.8929628795
							12.5172416294,55.7821062131,45.9812536699
							12.5172418217,55.7821127930,46.2111873784
							12.5172391355,55.7821206468,46.4516063004
							12.5172317174,55.7821276782,46.8158446368
							12.5172212634,55.7821328619,47.2039255381
							12.5172127873,55.7821397844,47.5204353501
							12.5172023484,55.7821495166,47.5901060745
							12.5171915937,55.7821557574,47.5451187828
							12.5171797979,55.7821614460,47.3665339666
							12.5171670906,55.7821684561,47.1195859888
							12.5171564210,55.7821766492,47.1460714065
							12.5171417493,55.7821817153,47.1781951545
							12.5171263640,55.7821845218,47.0879256042
							12.5171086417,55.7821831154,47.2124346182
							12.5170932095,55.7821846014,47.3121770574
							12.5170736261,55.7821843064,47.4022716390
							12.5170551561,55.7821830908,47.3748311654
							12.5170360482,55.7821816983,47.4427939742

						</coordinates>
					<tessellate>1</tessellate>
				</LineString>
			</MultiGeometry>
			<description>
<![CDATA[<span style="color:#222222;"><b>-First Epoch:</b></span><br>TOW=[377873000ms]<br>PVT Mode=6<br>NrSv=35<br> 	BaseStationID=121<br>meanCorrAge=160<br>]]><![CDATA[<br>]]>
<![CDATA[<span style="color:#222222;"><b>-Last Epoch:</b></span><br>TOW=[377965000ms]<br>PVT Mode=1<br>NrSv=35<br> ]]><![CDATA[<br>]]>

			</description>
		</Placemark>
		<Placemark>
<!--M:1   S:270665997 -->
			<name><![CDATA[<span style="color:#0000FF;"><b>Stand-Alone PVT (1)</b></span>]]></name>
			<Style>
				<LineStyle>
					<color>0xFFFF0000</color>
				</LineStyle>
			</Style>
			<MultiGeometry>
				<LineString>
					<altitudeMode>clampToGround</altitudeMode>
						<coordinates>
							12.5170179160,55.7821812420,47.4968324116
							12.5170027398,55.7821865111,47.4272947438
							12.5169892812,55.7821930086,47.2461102109
							12.5169737836,55.7821982752,47.3921854654
							12.5169591967,55.7822037094,47.5482889250
							12.5169424299,55.7822095224,47.5597067270
							12.5169252239,55.7822152423,47.3235527545
							12.5169104692,55.7822213361,46.9994761870
							12.5168954636,55.7822258496,46.8158745909
							12.5168790192,55.7822300526,46.8274301618
							12.5168604606,55.7822325617,46.7282931563
							12.5168442474,55.7822344989,46.4709065175
							12.5168278085,55.7822378147,46.1548726301
							12.5168114067,55.7822409856,45.8600159537
							12.5167978443,55.7822465736,45.7208858773
							12.5167861776,55.7822524480,45.5369016433
							12.5167808094,55.7822594727,45.3130694731
							12.5167780737,55.7822669573,45.3174006265
							12.5167761488,55.7822744633,45.3014648909
							12.5167783312,55.7822810334,45.2878997480
							12.5167820502,55.7822883868,45.3077899170
							12.5167792303,55.7822962299,45.5853444855
							12.5167785941,55.7823033257,45.7402144069
							12.5167785176,55.7823081527,46.0236791190
							12.5167792945,55.7823110646,46.3858947276
							12.5167801405,55.7823173328,46.8162725459
							12.5167827558,55.7823243004,47.0612967137
							12.5167876680,55.7823324140,47.2299334724
							12.5167924956,55.7823410317,47.2710814492
							12.5167986168,55.7823482811,47.2707778294
							12.5168032770,55.7823550182,47.2812764752
							12.5168068279,55.7823623308,47.2010092840
							12.5168109601,55.7823689994,47.0398248513
							12.5168142749,55.7823772218,46.8593033275
							12.5168180603,55.7823873093,46.6833759282

						</coordinates>
					<tessellate>1</tessellate>
				</LineString>
			</MultiGeometry>
			<description>
<![CDATA[<span style="color:#222222;"><b>-First Epoch:</b></span><br>TOW=[377965000ms]<br>PVT Mode=1<br>NrSv=35<br> ]]><![CDATA[<br>]]>
<![CDATA[<span style="color:#222222;"><b>-Last Epoch:</b></span><br>TOW=[378000000ms]<br>PVT Mode=6<br>NrSv=32<br> 	BaseStationID=121<br>meanCorrAge=140<br>]]><![CDATA[<br>]]>

			</description>
		</Placemark>
		<Placemark>
<!--M:6   S:268566785 -->
			<name><![CDATA[<span style="color:#0AEBF7;"><b>SBAS aided PVT (6)</b></span>]]></name>
			<Style>
				<LineStyle>
					<color>0xFFF7EB0A</color>
				</LineStyle>
			</Style>
			<MultiGeometry>
				<LineString>
					<altitudeMode>clampToGround</altitudeMode>
						<coordinates>
							12.5168243506,55.7823940057,46.4547023966
							12.5168353427,55.7824011503,46.2984907389
							12.5168435631,55.7824090199,46.1580499094
							12.5168502624,55.7824168452,45.9599461944
							12.5168540064,55.7824243083,45.8652307645
							12.5168543492,55.7824330863,46.0188590673
							12.5168585368,55.7824402570,46.1176758207
							12.5168617062,55.7824472165,46.1992976958
							12.5168645669,55.7824558949,46.1190238765
							12.5168697444,55.7824632065,46.0451765707
							12.5168760964,55.7824700058,45.8681185092
							12.5168817774,55.7824759167,45.7156321091
							12.5168868266,55.7824833417,45.5430041071
							12.5168898339,55.7824908046,45.5827140635
							12.5168934304,55.7824993942,45.6037461592
							12.5168969215,55.7825068538,45.5037070887
							12.5169004259,55.7825144195,45.4884309039
							12.5169021718,55.7825221827,45.4332754663
							12.5169017445,55.7825313354,45.4384834827
							12.5169010800,55.7825411218,45.5252897192
							12.5169028103,55.7825498234,45.4958128465
							12.5169066043,55.7825587564,45.6324856742
							12.5169108194,55.7825673739,45.6229809632
							12.5169154945,55.7825748593,45.5816042200

						</coordinates>
					<tessellate>1</tessellate>
				</LineString>
			</MultiGeometry>
			<description>
<![CDATA[<span style="color:#222222;"><b>-First Epoch:</b></span><br>TOW=[378000000ms]<br>PVT Mode=6<br>NrSv=32<br> 	BaseStationID=121<br>meanCorrAge=140<br>]]><![CDATA[<br>]]>
<![CDATA[<span style="color:#222222;"><b>-Last Epoch:</b></span><br>TOW=[378024000ms]<br>PVT Mode=1<br>NrSv=36<br> ]]><![CDATA[<br>]]>

			</description>
		</Placemark>
		<Placemark>
<!--M:1   S:807536909 -->
			<name><![CDATA[<span style="color:#0000FF;"><b>Stand-Alone PVT (1)</b></span>]]></name>
			<Style>
				<LineStyle>
					<color>0xFFFF0000</color>
				</LineStyle>
			</Style>
			<MultiGeometry>
				<LineString>
					<altitudeMode>clampToGround</altitudeMode>
						<coordinates>
							12.5169212111,55.7825827493,45.7375622299
							12.5169259609,55.7825895270,45.7180091113
							12.5169270028,55.7825978910,45.6935848444
							12.5169261271,55.7826065347,45.7341710113
							12.5169212407,55.7826114745,45.6710264728
							12.5169138291,55.7826174328,45.6306056634
							12.5169039831,55.7826230952,45.5628002887
							12.5168920906,55.7826278117,45.4519500752
							12.5168798374,55.7826304488,45.3429194991
							12.5168696877,55.7826352036,45.3892276773
							12.5168592938,55.7826394372,45.4891904863
							12.5168472394,55.7826439343,45.5564635519
							12.5168372528,55.7826471745,45.6378785928
							12.5168254337,55.7826518257,45.6781353827
							12.5168132620,55.7826537335,45.7075799191
							12.5168022276,55.7826571001,45.6601064036
							12.5167912995,55.7826590986,45.6836398983
							12.5167803359,55.7826626088,45.6498420353
							12.5167691675,55.7826666915,45.5697680096
							12.5167614430,55.7826701948,45.5472674436
							12.5167534293,55.7826730705,45.4556328146
							12.5167463986,55.7826765876,45.3293352065
							12.5167401256,55.7826818160,45.1235177287
							12.5167354318,55.7826882096,45.1468789206
							12.5167331218,55.7826945748,45.1581061708
							12.5167328097,55.7827012588,45.1385167484
							12.5167369381,55.7827070114,45.0783507815
							12.5167403095,55.7827092180,45.0634764788
							12.5167419757,55.7827096182,45.1987005635
							12.5167435324,55.7827098583,45.2369470049
							12.5167448326,55.7827126708,45.2377519013
							12.5167477487,55.7827153688,45.2076857310
							12.5167497110,55.7827178468,45.1929622351
							12.5167504389,55.7827210786,44.8355620024
							12.5167504315,55.7827255955,44.8075689291
							12.5167555639,55.7827306780,44.5788492868
							12.5167641961,55.7827347221,44.4828581114
							12.5167711002,55.7827391469,44.3329811998
							12.5167772107,55.7827454171,44.3439050282
							12.5167833129,55.7827510532,44.2310371523
							12.5167885068,55.7827561419,43.8965783542
							12.5167929015,55.7827615074,43.6202070114
							12.5167943495,55.7827665592,43.5478977585
							12.5167989360,55.7827729516,43.4023045028
							12.5168064816,55.7827817781,43.3794966119
							12.5168150343,55.7827901495,43.4786123430
							12.5168232649,55.7827969963,43.6404699491
							12.5168300627,55.7828035666,43.6736871430
							12.5168293683,55.7828104901,43.6732193594
							12.5168294803,55.7828171305,43.5697323764
							12.5168318186,55.7828233393,43.4702681966
							12.5168381579,55.7828284315,43.3305663817
							12.5168449225,55.7828330436,43.1103219623
							12.5168528519,55.7828361520,42.8389222850
							12.5168618423,55.7828384013,42.7053515773
							12.5168721190,55.7828416892,42.5956637182
							12.5168810832,55.7828437405,42.4334706369
							12.5168913832,55.7828460263,42.4033110660
							12.5169001059,55.7828468774,42.5005151206
							12.5169090143,55.7828465214,42.5004342144
							12.5169202540,55.7828462129,42.5073877524
							12.5169293777,55.7828462594,42.5221957248
							12.5169402820,55.7828461172,42.5251524382
							12.5169489469,55.7828475900,42.4798901737
							12.5169520013,55.7828485054,42.4678850531
							12.5169543163,55.7828485957,42.4629618076
							12.5169585237,55.7828476242,42.4193226900

						</coordinates>
					<tessellate>1</tessellate>
				</LineString>
			</MultiGeometry>
			<description>
<![CDATA[<span style="color:#222222;"><b>-First Epoch:</b></span><br>TOW=[378024000ms]<br>PVT Mode=1<br>NrSv=36<br> ]]><![CDATA[<br>]]>
<![CDATA[<span style="color:#222222;"><b>-Last Epoch:</b></span><br>TOW=[378091000ms]<br>PVT Mode=6<br>NrSv=35<br> 	BaseStationID=121<br>meanCorrAge=220<br>]]><![CDATA[<br>]]>

			</description>
		</Placemark>
		<Placemark>
<!--M:6   S:269615361 -->
			<name><![CDATA[<span style="color:#0AEBF7;"><b>SBAS aided PVT (6)</b></span>]]></name>
			<Style>
				<LineStyle>
					<color>0xFFF7EB0A</color>
				</LineStyle>
			</Style>
			<MultiGeometry>
				<LineString>
					<altitudeMode>clampToGround</altitudeMode>
						<coordinates>
							12.5169637161,55.7828461603,42.4684667828
							12.5169690406,55.7828436532,42.4645332593
							12.5169732830,55.7828400171,42.4145932327
							12.5169788106,55.7828387260,42.3278626692
							12.5169813155,55.7828410618,42.2776606783
							12.5169834272,55.7828415476,42.2175014353
							12.5169858020,55.7828420439,42.1914324044
							12.5169874145,55.7828422328,42.2013327273
							12.5169901718,55.7828416271,42.2031141356
							12.5169930173,55.7828409247,42.2242831356
							12.5169945066,55.7828402830,42.2459721713
							12.5169944637,55.7828403594,42.2465231209
							12.5169923704,55.7828417331,42.2060042100
							12.5169907074,55.7828423662,42.1538250899
							12.5169898753,55.7828426227,42.1029315074
							12.5169932921,55.7828412985,42.0502532490
							12.5170004265,55.7828396055,41.9596781359
							12.5170024022,55.7828384186,41.9422539197
							12.5170063918,55.7828348375,41.9330134360
							12.5170067325,55.7828295675,41.8915183188
							12.5170071209,55.7828293176,41.8117527805
							12.5170130830,55.7828330196,41.7769221467
							12.5170227619,55.7828386412,41.7783310575
							12.5170330495,55.7828418381,41.7383747539
							12.5170464135,55.7828445585,41.6498455052
							12.5170599215,55.7828453365,41.6608564292
							12.5170745001,55.7828471445,41.6205175419
							12.5170883699,55.7828484407,41.6341538928
							12.5171053880,55.7828495772,41.6555549466
							12.5171199639,55.7828494467,41.6492766673
							12.5171361636,55.7828492936,41.6400077016
							12.5171515663,55.7828488343,41.5233089596
							12.5171649708,55.7828480272,41.5529386794
							12.5171808949,55.7828459698,41.5789366301
							12.5171953829,55.7828430791,41.4614275551

						</coordinates>
					<tessellate>1</tessellate>
				</LineString>
			</MultiGeometry>
			<description>
<![CDATA[<span style="color:#222222;"><b>-First Epoch:</b></span><br>TOW=[378091000ms]<br>PVT Mode=6<br>NrSv=35<br> 	BaseStationID=121<br>meanCorrAge=220<br>]]><![CDATA[<br>]]>
<![CDATA[<span style="color:#222222;"><b>-Last Epoch:</b></span><br>TOW=[378126000ms]<br>PVT Mode=1<br>NrSv=31<br> ]]><![CDATA[<br>]]>

			</description>
		</Placemark>
		<Placemark>
<!--M:1   S:807536909 -->
			<name><![CDATA[<span style="color:#0000FF;"><b>Stand-Alone PVT (1)</b></span>]]></name>
			<Style>
				<LineStyle>
					<color>0xFFFF0000</color>
				</LineStyle>
			</Style>
			<MultiGeometry>
				<LineString>
					<altitudeMode>clampToGround</altitudeMode>
						<coordinates>
							12.5172077455,55.7828385399,41.4720984027
							12.5172205425,55.7828330770,41.5353290830
							12.5172327681,55.7828279056,41.4277892489
							12.5172458611,55.7828236402,41.3549899196
							12.5172598943,55.7828208382,41.4548716085
							12.5172765009,55.7828189522,41.4940180903
							12.5172925997,55.7828160369,41.3445086516
							12.5173079253,55.7828133648,41.2923428132
							12.5173228985,55.7828113419,41.3813446068
							12.5173380754,55.7828093300,41.2778521610
							12.5173510904,55.7828068607,41.3963666801
							12.5173657731,55.7828035562,41.4303950443
							12.5173801732,55.7828008977,41.4326299668
							12.5173952791,55.7827988240,41.5627769518
							12.5174127476,55.7827977471,41.6125252531
							12.5174287525,55.7827965438,41.5592041778
							12.5174429840,55.7827944780,41.6515005865
							12.5174587938,55.7827926917,41.5724524906
							12.5174733760,55.7827923522,41.5143970758
							12.5174885145,55.7827924007,41.5145449922
							12.5175007240,55.7827918572,41.4457309963
							12.5175131772,55.7827908651,41.4360347354
							12.5175239148,55.7827887517,41.2780143726
							12.5175393510,55.7827859755,41.3543850754
							12.5175450508,55.7827855325,41.5327232643
							12.5175473539,55.7827852027,41.6117747510
							12.5175543388,55.7827847000,41.5447958519
							12.5175588355,55.7827869935,41.4896917172
							12.5175601721,55.7827859585,41.3424594535
							12.5175612403,55.7827864470,41.2499407566
							12.5175664271,55.7827886160,41.2272580274
							12.5175753071,55.7827884292,41.1526811644
							12.5175839843,55.7827922386,41.1624897914
							12.5175955469,55.7827970426,41.1590381814
							12.5176058295,55.7828011090,41.1325243420
							12.5176206759,55.7828067628,41.0171492134
							12.5176330715,55.7828120045,40.9068028216
							12.5176454774,55.7828163230,40.9468323428
							12.5176572303,55.7828209819,40.9459161137
							12.5176646139,55.7828265012,40.9970119956
							12.5176690845,55.7828342512,41.0499494623
							12.5176724463,55.7828412533,41.1445601021
							12.5176771442,55.7828501534,41.1046490400
							12.5176820765,55.7828586091,41.1543356646
							12.5176866641,55.7828670402,41.1502540897
							12.5176919759,55.7828767366,41.0118652542
							12.5176959224,55.7828863511,41.1076980460

						</coordinates>
					<tessellate>1</tessellate>
				</LineString>
			</MultiGeometry>
			<description>
<![CDATA[<span style="color:#222222;"><b>-First Epoch:</b></span><br>TOW=[378126000ms]<br>PVT Mode=1<br>NrSv=31<br> ]]><![CDATA[<br>]]>
<![CDATA[<span style="color:#222222;"><b>-Last Epoch:</b></span><br>TOW=[378173000ms]<br>PVT Mode=6<br>NrSv=34<br> 	BaseStationID=121<br>meanCorrAge=143<br>]]><![CDATA[<br>]]>

			</description>
		</Placemark>
		<Placemark>
<!--M:6   S:268566785 -->
			<name><![CDATA[<span style="color:#0AEBF7;"><b>SBAS aided PVT (6)</b></span>]]></name>
			<Style>
				<LineStyle>
					<color>0xFFF7EB0A</color>
				</LineStyle>
			</Style>
			<MultiGeometry>
				<LineString>
					<altitudeMode>clampToGround</altitudeMode>
						<coordinates>
							12.5176992308,55.7828961479,41.0082460159
							12.5177020475,55.7829041773,40.9252821298
							12.5177065425,55.7829123564,40.9897304521
							12.5177115505,55.7829195846,40.8940683296
							12.5177164918,55.7829282917,40.9906400668
							12.5177214759,55.7829376237,40.9153439001
							12.5177267926,55.7829463150,40.9363881414
							12.5177332732,55.7829552360,40.8479088114
							12.5177375476,55.7829635202,40.9104688075
							12.5177402493,55.7829718606,40.8640890580
							12.5177432733,55.7829793705,40.7786917685
							12.5177477917,55.7829867124,40.8350345624
							12.5177545589,55.7829936967,40.7434447653
							12.5177615195,55.7830005709,40.8618552649
							12.5177655717,55.7830076085,40.8498379337
							12.5177706730,55.7830152115,40.9915292702
							12.5177731345,55.7830230164,41.0098810940
							12.5177776626,55.7830312841,40.8849459068
							12.5177804713,55.7830393239,40.9594011312
							12.5177832494,55.7830469030,41.1196448141
							12.5177869115,55.7830564215,41.1166039202
							12.5177924374,55.7830665894,40.9852224330
							12.5177961228,55.7830754643,41.0555864749
							12.5177971326,55.7830826136,41.1825677028
							12.5177985558,55.7830898949,41.1174471680
							12.5178032713,55.7830986705,41.2769683074
							12.5178096538,55.7831109342,41.6090839104
							12.5178154839,55.7831213541,41.7773724613
							12.5178224600,55.7831328818,41.7324115437
							12.5178299076,55.7831437398,41.7296046685
							12.5178339324,55.7831534360,41.6832326794
							12.5178383404,55.7831631009,41.4716934641
							12.5178412847,55.7831706287,41.3674381369
							12.5178436519,55.7831787155,41.3387150306
							12.5178479052,55.7831867032,41.3959134420
							12.5178535118,55.7831954809,41.5105930059
							12.5178589747,55.7832051897,41.3559970003
							12.5178634237,55.7832134165,41.2350417808
							12.5178660304,55.7832203226,41.2926065958
							12.5178698339,55.7832269572,41.1787206626
							12.5178747426,55.7832345885,41.2426147631
							12.5178811886,55.7832430044,41.2179186365
							12.5178876550,55.7832510377,41.1819144647
							12.5178910950,55.7832569716,41.3692507202
							12.5178937491,55.7832627381,41.5403471833
							12.5179008566,55.7832709941,41.5790771306
							12.5179070770,55.7832801828,41.7044161516
							12.5179137758,55.7832897675,41.5959828984
							12.5179171983,55.7832999510,41.4211895112
							12.5179206566,55.7833103670,41.3861360985
							12.5179230165,55.7833203619,41.3497976766
							12.5179274193,55.7833284239,41.2850453747
							12.5179280836,55.7833376329,41.3418253649
							12.5179323092,55.7833466093,41.5048760544
							12.5179359874,55.7833548526,41.6963754319
							12.5179390746,55.7833637971,41.6703150566
							12.5179481609,55.7833711164,41.4904627459
							12.5179555526,55.7833789510,41.3015135809
							12.5179606728,55.7833868360,41.0377778130
							12.5179683812,55.7833947752,40.9163711072
							12.5179759740,55.7834019829,40.7978944573
							12.5179866452,55.7834076179,40.7473900069
							12.5179977240,55.7834124832,40.8997185511
							12.5180062581,55.7834178157,41.0626950255
							12.5180180015,55.7834224895,41.2444018799
							12.5180299038,55.7834256746,41.2610870805
							12.5180423855,55.7834278719,41.4020447462
							12.5180539383,55.7834298635,41.5169734197
							12.5180663021,55.7834306514,41.7487302882
							12.5180785765,55.7834303323,41.8590241149
							12.5180829280,55.7834305741,41.9151131919
							12.5180835817,55.7834297784,41.8485876174
							12.5180854417,55.7834297574,41.8224179952
							12.5180904529,55.7834316626,41.8304760182
							12.5180992000,55.7834375868,41.9094005244
							12.5181100947,55.7834436179,41.9844036578
							12.5181195192,55.7834467817,42.1103286103
							12.5181305243,55.7834500545,42.1487419996
							12.5181417303,55.7834521429,42.1111302397
							12.5181528038,55.7834576540,41.9957878188
							12.5181656176,55.7834624076,42.0357033915

						</coordinates>
					<tessellate>1</tessellate>
				</LineString>
			</MultiGeometry>
			<description>
<![CDATA[<span style="color:#222222;"><b>-First Epoch:</b></span><br>TOW=[378173000ms]<br>PVT Mode=6<br>NrSv=34<br> 	BaseStationID=121<br>meanCorrAge=143<br>]]><![CDATA[<br>]]>
<![CDATA[<span style="color:#222222;"><b>-Last Epoch:</b></span><br>TOW=[378254000ms]<br>PVT Mode=1<br>NrSv=34<br> ]]><![CDATA[<br>]]>

			</description>
		</Placemark>
		<Placemark>
<!--M:1   S:807536909 -->
			<name><![CDATA[<span style="color:#0000FF;"><b>Stand-Alone PVT (1)</b></span>]]></name>
			<Style>
				<LineStyle>
					<color>0xFFFF0000</color>
				</LineStyle>
			</Style>
			<MultiGeometry>
				<LineString>
					<altitudeMode>clampToGround</altitudeMode>
						<coordinates>
							12.5181823511,55.7834674083,41.8647381347
							12.5182008156,55.7834711917,41.7488308548
							12.5182199980,55.7834732875,41.7139052434
							12.5182376988,55.7834746024,41.5630770022
							12.5182536794,55.7834766032,41.3454594774
							12.5182682569,55.7834781240,41.4039716859

						</coordinates>
					<tessellate>1</tessellate>
				</LineString>
			</MultiGeometry>
			<description>
<![CDATA[<span style="color:#222222;"><b>-First Epoch:</b></span><br>TOW=[378254000ms]<br>PVT Mode=1<br>NrSv=34<br> ]]><![CDATA[<br>]]>
<![CDATA[<span style="color:#222222;"><b>-Last Epoch:</b></span><br>TOW=[378260000ms]<br>PVT Mode=6<br>NrSv=34<br> 	BaseStationID=121<br>meanCorrAge=140<br>]]><![CDATA[<br>]]>

			</description>
		</Placemark>
		<Placemark>
<!--M:6   S:805437697 -->
			<name><![CDATA[<span style="color:#0AEBF7;"><b>SBAS aided PVT (6)</b></span>]]></name>
			<Style>
				<LineStyle>
					<color>0xFFF7EB0A</color>
				</LineStyle>
			</Style>
			<MultiGeometry>
				<LineString>
					<altitudeMode>clampToGround</altitudeMode>
						<coordinates>
							12.5182826792,55.7834799654,41.4514438689
							12.5182939128,55.7834806065,41.4735748337
							12.5183085594,55.7834809504,41.5682850019
							12.5183240268,55.7834838790,41.4995242353
							12.5183329157,55.7834853010,41.5411636318
							12.5183371305,55.7834873869,41.4451797929
							12.5183486427,55.7834909986,41.2803980316
							12.5183587912,55.7834941486,41.1623179969
							12.5183664732,55.7835010505,41.1612400611
							12.5183774133,55.7835093052,41.1657875771
							12.5183879974,55.7835150403,41.2454251509
							12.5183989638,55.7835196183,41.1942861119
							12.5184092674,55.7835225380,41.4106496697
							12.5184210086,55.7835241230,41.7295729800
							12.5184353076,55.7835238232,42.0126586038
							12.5184485688,55.7835200069,42.3726986490
							12.5184659293,55.7835166106,42.6389786068
							12.5184840104,55.7835138496,42.5616059072
							12.5184987402,55.7835122324,42.5697919562
							12.5185126877,55.7835138898,42.4804927148
							12.5185190872,55.7835159358,42.5135236223
							12.5185254537,55.7835207416,42.5219955354
							12.5185281145,55.7835294461,42.5949213414
							12.5185261379,55.7835380988,42.7114613223
							12.5185187589,55.7835483340,42.9041593132
							12.5185019792,55.7835643689,42.9881178007
							12.5184901184,55.7835804233,42.9381394075
							12.5184903149,55.7835937061,42.9160255862
							12.5184978195,55.7836032018,42.8120925781
							12.5185142907,55.7836104469,42.6354085515
							12.5185319914,55.7836182262,42.6724845598
							12.5185489377,55.7836242307,42.5545690360
							12.5185641517,55.7836282211,42.3970113808
							12.5185779228,55.7836313279,42.3773215004
							12.5185918957,55.7836313256,42.4437978951
							12.5186049094,55.7836327194,42.6642646919
							12.5186189902,55.7836355018,42.9649054501
							12.5186319895,55.7836447424,42.9478126217
							12.5186413688,55.7836469789,43.3341868633
							12.5186498622,55.7836498470,43.7505562695
							12.5186577176,55.7836596529,43.7355703336
							12.5186615396,55.7836697209,43.8128402969
							12.5186643050,55.7836804207,44.1153140001
							12.5186671676,55.7836895415,44.1858448415
							12.5186729283,55.7836993990,44.2701120489
							12.5186800490,55.7837087816,44.5070372514
							12.5186869362,55.7837209696,44.6167417077
							12.5186937465,55.7837345298,44.6829885595
							12.5186982381,55.7837486969,44.9233942946
							12.5187043020,55.7837618380,45.0426655527
							12.5187082929,55.7837726447,45.2552099663
							12.5187054884,55.7837806633,45.4747507282
							12.5187000559,55.7837857718,45.6113447490
							12.5186982101,55.7837902350,45.9384455576
							12.5186932750,55.7837989953,46.2141985515
							12.5186859256,55.7838112803,46.0944091258
							12.5186777007,55.7838239322,45.7688683149
							12.5186703815,55.7838367840,45.6398456338
							12.5186631178,55.7838507865,45.4543625981
							12.5186566721,55.7838678785,44.9050864042
							12.5186438757,55.7838853336,44.5325704597

						</coordinates>
					<tessellate>1</tessellate>
				</LineString>
			</MultiGeometry>
			<description>
<![CDATA[<span style="color:#222222;"><b>-First Epoch:</b></span><br>TOW=[378260000ms]<br>PVT Mode=6<br>NrSv=34<br> 	BaseStationID=121<br>meanCorrAge=140<br>]]><![CDATA[<br>]]>
<![CDATA[<span style="color:#222222;"><b>-Last Epoch:</b></span><br>TOW=[378321000ms]<br>PVT Mode=1<br>NrSv=34<br> ]]><![CDATA[<br>]]>

			</description>
		</Placemark>
		<Placemark>
<!--M:1   S:807536909 -->
			<name><![CDATA[<span style="color:#0000FF;"><b>Stand-Alone PVT (1)</b></span>]]></name>
			<Style>
				<LineStyle>
					<color>0xFFFF0000</color>
				</LineStyle>
			</Style>
			<MultiGeometry>
				<LineString>
					<altitudeMode>clampToGround</altitudeMode>
						<coordinates>
							12.5186442717,55.7838982138,44.3756841587
							12.5186582906,55.7839060714,44.1393032413
							12.5186766853,55.7839140528,43.8122388587
							12.5186962407,55.7839221479,43.6396206001
							12.5187132394,55.7839296680,43.6168035456
							12.5187226277,55.7839386296,43.2793774257
							12.5187325027,55.7839451151,43.0138185465
							12.5187422763,55.7839507432,42.9289798603
							12.5187503223,55.7839564243,42.8932124694
							12.5187577006,55.7839629018,42.6328938307
							12.5187639815,55.7839706152,42.4095062782
							12.5187764150,55.7839810645,42.3443262750
							12.5187901605,55.7839922504,42.1302758176
							12.5187996319,55.7839996165,41.9774595630

<!-- Writting trailer -->

						</coordinates>
					<tessellate>1</tessellate>
				</LineString>
			</MultiGeometry>
			<description>
<![CDATA[<span style="color:#222222;"><b>-First Epoch:</b></span><br>TOW=[378321000ms]<br>PVT Mode=1<br>NrSv=34<br> ]]><![CDATA[<br>]]>
<![CDATA[<span style="color:#222222;"><b>-Last Epoch:</b></span><br>TOW=[378334000ms]<br>PVT Mode=1<br>NrSv=30<br> 	(SBASprn=65535)<br>]]><![CDATA[<br>]]>

			</description>
		</Placemark>

<!-- Writting end of PVT section in KML -->
		<Placemark>
			<name>END</name>
				<LookAt>
					<longitude>12.518800</longitude>
					<latitude>55.784000</latitude>
					<altitude>41.977460</altitude>
				</LookAt>
			<TimeStamp>2026-03-05T09:05:34Z</TimeStamp>
			<Point>
				<coordinates>12.518800,55.784000,41.977460</coordinates>
				<altitudeMode>clampToGround</altitudeMode>
			</Point>
			<description>This the end of the whole logging track</description>
			<styleUrl>#end</styleUrl>
		</Placemark>
	</Folder>

<!-- Create folders for Events (0) -->

<!-- Create folders for Attitude every 0 epochs (0) -->

<!-- Create folders for Satellite positions (0) -->

<!-- Create folders for BaseStation positions (0) -->

<!-- Write the trailer of file -->
	<Style id="gv_legend">
		<IconStyle>
			<Icon>
			<href><![CDATA[root://icons/palette-2.png?x=224&y=192&h=32&w=32]]></href>
			</Icon>
		</IconStyle>
	</Style>
	<Style id="end">
		<IconStyle>
			<Icon>
			<href><![CDATA[root://icons/palette-4.png?x=224&y=192&h=32&w=32]]></href>
			</Icon>
		</IconStyle>
	</Style>
	<Style id="start">
		<IconStyle>
			<Icon>
			<href><![CDATA[root://icons/palette-4.png?x=192&h=32&w=32]]></href>
			</Icon>
		</IconStyle>
	</Style>
	<Style id="error">
		<IconStyle>
			<scale>0.500000</scale>
			<Icon>
			<href><![CDATA[root://icons/palette-3.png?x=128&y=32&h=32&w=32]]></href>
			</Icon>
		</IconStyle>
		<LabelStyle>
			<scale>0.600000</scale>
		</LabelStyle>
	</Style>
	<Style id="extevnt">
		<IconStyle>
			<scale>0.500000</scale>
			<Icon>
			<href><![CDATA[root://icons/palette-2.png?x=64&y=192&h=32&w=32]]></href>
			</Icon>
		</IconStyle>
		<LabelStyle>
			<scale>0.600000</scale>
		</LabelStyle>
	</Style>
	<Style id="change">
		<scale>0.500000</scale>
		<IconStyle>
			<Icon>
			<href><![CDATA[http://maps.google.com/mapfiles/kml/pushpin/ltblu-pushpin.png]]></href>
			</Icon>
		</IconStyle>
	</Style>
	<Style id="change0">
		<scale>0.500000</scale>
		<IconStyle>
			<Icon>
			<href><![CDATA[http://maps.google.com/mapfiles/kml/pushpin/red-pushpin.png]]></href>
			</Icon>
		</IconStyle>
	</Style>
	<Style id="change3">
		<scale>0.500000</scale>
		<IconStyle>
			<Icon>
			<href><![CDATA[http://maps.google.com/mapfiles/kml/pushpin/grn-pushpin.png]]></href>
			</Icon>
		</IconStyle>
	</Style>
	<Style id="change2">
		<scale>0.500000</scale>
		<IconStyle>
			<Icon>
			<href><![CDATA[http://maps.google.com/mapfiles/kml/pushpin/ltblu-pushpin.png]]></href>
			</Icon>
		</IconStyle>
	</Style>
	</Document>
</kml>
