<kml xmlns="http://earth.google.com/kml/2.0"><Document>
	<name>SBF File: ..\fw_gnss1.sbf</name>
	<ScreenOverlay id="RxControl - Septentrio">
	<name>Septentrio Logo</name>
	<description></description>
	<Icon><href>https://www.septentrio.com/gfx/logo180x60_v2.gif</href></Icon>
	<overlayXY x="0.0" y="1.0" xunits="fraction" yunits="fraction"/>
	<screenXY x="0.0" y="1.0" xunits="fraction" yunits="fraction"/>
	<rotation>0.0</rotation>
	<size x="0" y="0" xunits="pixels" yunits="pixels"/>
	<color>caffffff</color>	</ScreenOverlay>
	<ScreenOverlay id="Color Legend">
	<name>Color Legend</name>
	<description></description>
	<Icon><href>https://www.septentrio.com/images/PVTModes4.png</href></Icon>
	<overlayXY x="0.0" y="1.0" xunits="fraction" yunits="fraction"/>
	<screenXY x="0.0" y="0.35" xunits="fraction" yunits="fraction"/>
	<rotation>0.0</rotation>
	<size x="0" y="0" xunits="pixels" yunits="pixels"/>
	<color>7affffff</color>	</ScreenOverlay>
	<Style id="radioFolderStyle"><ListStyle><listItemType>radioFolder</listItemType></ListStyle></Style>
	<Folder>
		<name>Color Legend: sbf2kml-2.9.0x
 Author: Septentrio (support@septentrio.com)</name>
		<Placemark>
			<name><![CDATA[<span style="color:#0000FF;"><b>Stand-Alone</b></span>]]></name>
			<styleUrl>#gv_legend</styleUrl>
			<visibility>1</visibility>
		</Placemark>
		<Placemark>
			<name><![CDATA[<span style="color:#FF9B14;"><b>Diff-PVT</b></span>]]></name>
			<styleUrl>#gv_legend</styleUrl>
			<visibility>1</visibility>
		</Placemark>
		<Placemark>
			<name><![CDATA[<span style="color:#917676;"><b>Fixed-Location</b></span>]]></name>
			<styleUrl>#gv_legend</styleUrl>
			<visibility>1</visibility>
		</Placemark>
		<Placemark>
			<name><![CDATA[<span style="color:#11FF11;"><b>RTK-fixed</b></span>]]></name>
			<styleUrl>#gv_legend</styleUrl>
			<visibility>1</visibility>
		</Placemark>
		<Placemark>
			<name><![CDATA[<span style="color:#710A7D;"><b>RTK-float</b></span>]]></name>
			<styleUrl>#gv_legend</styleUrl>
			<visibility>1</visibility>
		</Placemark>
		<Placemark>
			<name><![CDATA[<span style="color:#0AEBF7;"><b>SBAS Aided PVT</b></span>]]></name>
			<styleUrl>#gv_legend</styleUrl>
			<visibility>1</visibility>
		</Placemark>
	</Folder>
<!-- Start of pvt blocks reading -->
	<Folder>
		<name>Tracks/Wpnts for ..\fw_gnss1.sbf</name>
		<Placemark>
			<name>START</name>
				<LookAt>
					<longitude>12.516884</longitude>
					<latitude>55.779653</latitude>
					<altitude>41.255756</altitude>
				</LookAt>
			<TimeStamp>2026-03-05T08:09:59Z</TimeStamp>
			<Point>
				<coordinates>12.516884,55.779653,41.255756</coordinates>
				<altitudeMode>clampToGround</altitudeMode>
			</Point>
			<description>Start of logged file</description>
			<styleUrl>#start</styleUrl>
		</Placemark>
		<Placemark>
<!--M:6   S:268566785 -->
			<name><![CDATA[<span style="color:#0AEBF7;"><b>SBAS aided PVT (6)</b></span>]]></name>
			<Style>
				<LineStyle>
					<color>0xFFF7EB0A</color>
				</LineStyle>
			</Style>
			<MultiGeometry>
				<LineString>
					<altitudeMode>clampToGround</altitudeMode>
						<coordinates>
							12.5168843601,55.7796527131,41.2557555453
							12.5168843057,55.7796527197,41.2588807928
							12.5168843144,55.7796527414,41.2578609059
							12.5168843071,55.7796527465,41.2598522986
							12.5168843148,55.7796527659,41.2623748941
							12.5168843606,55.7796527752,41.2621420190
							12.5168844079,55.7796528014,41.2595589408
							12.5168843830,55.7796528699,41.2633181635
							12.5168843948,55.7796529443,41.2631180281
							12.5168844042,55.7796530015,41.2662088950
							12.5168843721,55.7796530542,41.2730196794
							12.5168844337,55.7796530910,41.2761387816
							12.5168844146,55.7796531191,41.2776322645
							12.5168844497,55.7796531386,41.2769577222
							12.5168844815,55.7796531638,41.2803912887
							12.5168844661,55.7796532004,41.2848743608
							12.5168844621,55.7796532550,41.2838121320
							12.5168844793,55.7796533082,41.2825635633
							12.5168845151,55.7796533616,41.2830409451
							12.5168845427,55.7796534541,41.2863363743
							12.5168845826,55.7796535066,41.2888712515
							12.5168846541,55.7796535422,41.2906339153
							12.5168847082,55.7796535762,41.2918028525
							12.5168847602,55.7796536084,41.2941367114
							12.5168847941,55.7796536592,41.2953528375
							12.5168848336,55.7796536862,41.3002738174
							12.5168848843,55.7796537494,41.3033682801
							12.5168849535,55.7796537647,41.3056071318
							12.5168850342,55.7796537976,41.3108239644
							12.5168850994,55.7796538294,41.3101236604
							12.5168851719,55.7796538686,41.3199512438
							12.5168852215,55.7796538839,41.3212810718
							12.5168852262,55.7796539244,41.3232091958
							12.5168852309,55.7796539735,41.3299504785
							12.5168852456,55.7796540479,41.3332779900
							12.5168852349,55.7796540742,41.3422066266
							12.5168852617,55.7796541125,41.3434664360
							12.5168852975,55.7796541769,41.3486599377
							12.5168853172,55.7796542648,41.3516619624
							12.5168853086,55.7796543114,41.3557973903
							12.5168853788,55.7796543664,41.3548899558
							12.5168854259,55.7796544266,41.3510366763
							12.5168854325,55.7796544493,41.3515867540
							12.5168854538,55.7796545215,41.3487428541
							12.5168854290,55.7796545373,41.3497318073
							12.5168854536,55.7796545627,41.3483540659
							12.5168854288,55.7796545727,41.3529733005
							12.5168854102,55.7796545960,41.3570950635
							12.5168853967,55.7796546047,41.3617943579
							12.5168853690,55.7796545950,41.3601460502
							12.5168853433,55.7796545945,41.3624701126
							12.5168853355,55.7796545659,41.3591018187
							12.5168853352,55.7796545913,41.3614776503
							12.5168853503,55.7796545825,41.3593532437
							12.5168853628,55.7796545906,41.3607529169
							12.5168853344,55.7796545977,41.3598660163
							12.5168853242,55.7796546247,41.3566649359
							12.5168853241,55.7796546394,41.3559007225
							12.5168853002,55.7796546559,41.3576925829
							12.5168852604,55.7796546574,41.3532163125
							12.5168852463,55.7796546666,41.3526691763
							12.5168852468,55.7796546706,41.3495581237
							12.5168852728,55.7796546733,41.3450425198
							12.5168852677,55.7796546893,41.3449889687
							12.5168852843,55.7796546849,41.3424699048
							12.5168852928,55.7796547051,41.3380342771
							12.5168853301,55.7796547203,41.3359947917
							12.5168853366,55.7796547197,41.3319947968
							12.5168853354,55.7796547356,41.3296086767
							12.5168853542,55.7796547459,41.3315302816
							12.5168853517,55.7796547861,41.3287081682
							12.5168853238,55.7796548132,41.3306612148
							12.5168853231,55.7796548276,41.3331141814
							12.5168852701,55.7796548457,41.3345296227
							12.5168852491,55.7796548487,41.3335834145
							12.5168852243,55.7796548641,41.3357695121
							12.5168852013,55.7796548909,41.3347909010
							12.5168851693,55.7796548927,41.3378870359
							12.5168851344,55.7796549092,41.3383482442
							12.5168851366,55.7796549194,41.3385938260
							12.5168851198,55.7796549541,41.3391253113
							12.5168850884,55.7796549755,41.3386657787
							12.5168851017,55.7796549642,41.3360605989
							12.5168851178,55.7796549601,41.3359108797
							12.5168851016,55.7796549595,41.3361653956
							12.5168850937,55.7796549650,41.3345952679
							12.5168850790,55.7796549799,41.3354258977
							12.5168850665,55.7796549941,41.3354648664
							12.5168850685,55.7796550136,41.3320703805
							12.5168850914,55.7796550196,41.3316052775
							12.5168851097,55.7796550694,41.3297573884
							12.5168851554,55.7796551241,41.3288908277
							12.5168852015,55.7796551213,41.3314954797
							12.5168852611,55.7796551599,41.3340788005
							12.5168853246,55.7796551731,41.3350918370
							12.5168853818,55.7796552098,41.3370954581
							12.5168854303,55.7796552187,41.3386308325
							12.5168854308,55.7796552796,41.3448063118
							12.5168854836,55.7796552967,41.3447256506
							12.5168854967,55.7796553002,41.3483142614
							12.5168855440,55.7796553106,41.3493791926
							12.5168855839,55.7796553335,41.3478972272
							12.5168855989,55.7796553430,41.3467962327
							12.5168855975,55.7796553572,41.3519101268
							12.5168856039,55.7796553566,41.3508663606
							12.5168855952,55.7796553467,41.3484151438
							12.5168855677,55.7796553553,41.3513535021
							12.5168855348,55.7796553825,41.3513260410
							12.5168855270,55.7796553930,41.3538304077
							12.5168855034,55.7796554125,41.3542089860
							12.5168855377,55.7796554462,41.3596166349
							12.5168854992,55.7796554539,41.3647809514
							12.5168855289,55.7796554614,41.3709480893
							12.5168855277,55.7796554944,41.3792737166
							12.5168855269,55.7796555079,41.3849919650
							12.5168855638,55.7796555001,41.3879908735
							12.5168855624,55.7796555249,41.3890620744
							12.5168855437,55.7796555322,41.3957220183
							12.5168855700,55.7796555720,41.4006629699
							12.5168855622,55.7796556053,41.4028443846
							12.5168855938,55.7796556258,41.4060494883
							12.5168855648,55.7796556560,41.4138665852
							12.5168855752,55.7796556812,41.4203548055
							12.5168855857,55.7796556925,41.4249468492
							12.5168855764,55.7796557177,41.4332434747
							12.5168855651,55.7796557537,41.4381718459
							12.5168855822,55.7796557900,41.4442638494
							12.5168856069,55.7796558041,41.4469671501
							12.5168856142,55.7796558408,41.4508299577
							12.5168856030,55.7796558531,41.4534138156
							12.5168855870,55.7796558710,41.4551879508
							12.5168855752,55.7796558758,41.4561866955
							12.5168855766,55.7796558826,41.4597238366
							12.5168855551,55.7796558830,41.4606485170
							12.5168855425,55.7796558682,41.4628769979
							12.5168855476,55.7796558807,41.4627117308
							12.5168855071,55.7796558746,41.4620783105
							12.5168854928,55.7796558616,41.4656884821
							12.5168854882,55.7796558409,41.4701723373
							12.5168854950,55.7796558174,41.4705686143
							12.5168854715,55.7796558096,41.4687289897
							12.5168854489,55.7796557865,41.4694824314
							12.5168854505,55.7796557508,41.4698084005
							12.5168854437,55.7796557329,41.4672556246
							12.5168854422,55.7796557217,41.4724578170
							12.5168854742,55.7796556987,41.4695790414
							12.5168854643,55.7796556524,41.4686795539
							12.5168854613,55.7796556509,41.4675678775
							12.5168854700,55.7796556402,41.4663115335
							12.5168854675,55.7796556420,41.4654893005
							12.5168854720,55.7796556184,41.4668169718
							12.5168854843,55.7796556045,41.4648208487
							12.5168854781,55.7796555903,41.4617787677
							12.5168854936,55.7796555807,41.4613434079
							12.5168854823,55.7796555580,41.4597122868
							12.5168854600,55.7796555420,41.4563241143
							12.5168854664,55.7796555276,41.4539577730
							12.5168854472,55.7796554956,41.4510366719
							12.5168854775,55.7796554694,41.4492812743
							12.5168854942,55.7796554298,41.4446811833
							12.5168854669,55.7796554137,41.4411165746
							12.5168854601,55.7796553813,41.4371012759
							12.5168854826,55.7796553440,41.4329001586
							12.5168854886,55.7796553334,41.4302538135
							12.5168855064,55.7796553143,41.4282896421
							12.5168855037,55.7796552918,41.4250279289
							12.5168854987,55.7796552583,41.4217697951
							12.5168854594,55.7796552275,41.4182005618
							12.5168854559,55.7796552085,41.4137271447
							12.5168854376,55.7796551916,41.4093530466
							12.5168854125,55.7796551678,41.4080918395
							12.5168853918,55.7796551322,41.4027401186
							12.5168853673,55.7796550909,41.3968834418
							12.5168853227,55.7796550686,41.3934300244
							12.5168853016,55.7796550427,41.3895954231
							12.5168852804,55.7796550030,41.3872599487
							12.5168852515,55.7796549920,41.3852195401
							12.5168852349,55.7796549535,41.3829486282
							12.5168852140,55.7796549233,41.3795859875
							12.5168851867,55.7796549005,41.3751858067
							12.5168851662,55.7796548722,41.3724675340
							12.5168851488,55.7796548422,41.3715809129
							12.5168851132,55.7796547975,41.3662884433
							12.5168850905,55.7796547476,41.3651028855
							12.5168850704,55.7796547195,41.3606210717
							12.5168850303,55.7796546927,41.3576339640
							12.5168850257,55.7796546622,41.3580555416
							12.5168850103,55.7796546306,41.3581870560
							12.5168849944,55.7796546202,41.3607931323
							12.5168849850,55.7796545930,41.3591537426
							12.5168849874,55.7796545959,41.3603082060
							12.5168849877,55.7796546024,41.3613184345
							12.5168849921,55.7796545972,41.3610370192
							12.5168849846,55.7796545939,41.3643558466
							12.5168849816,55.7796545957,41.3657690609
							12.5168849984,55.7796545983,41.3647341051
							12.5168849751,55.7796545966,41.3638734992
							12.5168849712,55.7796546054,41.3640274360
							12.5168849561,55.7796546186,41.3644394575
							12.5168849514,55.7796546284,41.3611017199
							12.5168849652,55.7796546387,41.3605053820
							12.5168849528,55.7796546358,41.3621941026
							12.5168849525,55.7796546395,41.3616575000
							12.5168849359,55.7796546488,41.3586904638
							12.5168849464,55.7796546570,41.3588926225
							12.5168849296,55.7796546605,41.3640965642
							12.5168849204,55.7796546693,41.3629172554
							12.5168849075,55.7796546723,41.3634175784
							12.5168848915,55.7796546855,41.3626572681
							12.5168848830,55.7796546874,41.3623589149
							12.5168848757,55.7796547042,41.3664353499
							12.5168848787,55.7796547032,41.3660380849
							12.5168849038,55.7796547086,41.3683326862
							12.5168848951,55.7796547162,41.3684055538
							12.5168849035,55.7796547264,41.3723099013
							12.5168849063,55.7796547419,41.3725960249
							12.5168849323,55.7796547613,41.3768678407
							12.5168849410,55.7796547764,41.3812553332
							12.5168849528,55.7796547896,41.3772565281
							12.5168849689,55.7796547924,41.3789621390
							12.5168849744,55.7796548060,41.3821762416
							12.5168849908,55.7796547845,41.3837247592
							12.5168849728,55.7796547895,41.3825191908
							12.5168849862,55.7796548121,41.3805310955
							12.5168849765,55.7796548367,41.3828757238
							12.5168849564,55.7796548442,41.3893872718
							12.5168849443,55.7796548540,41.3896881023
							12.5168849164,55.7796548731,41.3912190178
							12.5168848995,55.7796548892,41.3900521727
							12.5168848705,55.7796548970,41.3909148008
							12.5168848621,55.7796548974,41.3891804574
							12.5168848416,55.7796549078,41.3877302256
							12.5168848407,55.7796548983,41.3843237180
							12.5168848265,55.7796548954,41.3817004720
							12.5168847969,55.7796548950,41.3860056814
							12.5168847743,55.7796548906,41.3848588179
							12.5168847494,55.7796549002,41.3846886674
							12.5168847196,55.7796548990,41.3842889530
							12.5168847098,55.7796548922,41.3815436833
							12.5168847147,55.7796548735,41.3808241160
							12.5168847003,55.7796548686,41.3802274260
							12.5168847372,55.7796548687,41.3794053625
							12.5168847307,55.7796548488,41.3764103285
							12.5168847693,55.7796548398,41.3759715311
							12.5168847859,55.7796548480,41.3737679743
							12.5168847831,55.7796548199,41.3724985296
							12.5168848140,55.7796548137,41.3694744099
							12.5168848064,55.7796548131,41.3703348022
							12.5168848110,55.7796548036,41.3701553111
							12.5168848262,55.7796547963,41.3733050609
							12.5168848671,55.7796548018,41.3723585944
							12.5168848901,55.7796547901,41.3686925304
							12.5168849253,55.7796547845,41.3690373891
							12.5168849422,55.7796547515,41.3650574392
							12.5168849795,55.7796547352,41.3646237357
							12.5168850182,55.7796547465,41.3657088696
							12.5168850117,55.7796547111,41.3665215652
							12.5168850241,55.7796546982,41.3685273710
							12.5168850610,55.7796547016,41.3686658056
							12.5168851031,55.7796546936,41.3655950035
							12.5168851402,55.7796546772,41.3652608288
							12.5168851599,55.7796546764,41.3638687984
							12.5168851755,55.7796546668,41.3648260744
							12.5168852026,55.7796546438,41.3676101747
							12.5168852042,55.7796546119,41.3666138429
							12.5168852166,55.7796545870,41.3663467058
							12.5168852326,55.7796545755,41.3644822869
							12.5168852269,55.7796545707,41.3647684797
							12.5168852544,55.7796545493,41.3644994556
							12.5168852594,55.7796545250,41.3659889494
							12.5168852707,55.7796544974,41.3635191892
							12.5168852828,55.7796544920,41.3637716361
							12.5168852862,55.7796544868,41.3662077343
							12.5168852969,55.7796544965,41.3660409640
							12.5168852963,55.7796545034,41.3693253439
							12.5168852932,55.7796544842,41.3680871452
							12.5168852834,55.7796544892,41.3673787956
							12.5168852848,55.7796545078,41.3680835301
							12.5168852855,55.7796545160,41.3700763751
							12.5168852778,55.7796545278,41.3714214121
							12.5168852868,55.7796545342,41.3714164852
							12.5168852863,55.7796545545,41.3727756421
							12.5168852978,55.7796545708,41.3734829471
							12.5168852959,55.7796545665,41.3766488389
							12.5168853128,55.7796545666,41.3777838459
							12.5168853360,55.7796545652,41.3796692972
							12.5168853318,55.7796545651,41.3822338585
							12.5168853210,55.7796545619,41.3820047804
							12.5168853316,55.7796545604,41.3826424907
							12.5168853470,55.7796545626,41.3830430277
							12.5168853485,55.7796545519,41.3879419547
							12.5168853440,55.7796545395,41.3881684074
							12.5168853544,55.7796545473,41.3884303589
							12.5168853615,55.7796545319,41.3879979976
							12.5168853335,55.7796545084,41.3921363152
							12.5168853512,55.7796544899,41.3901905704
							12.5168853185,55.7796544894,41.3936055404
							12.5168853380,55.7796544979,41.3968213373
							12.5168853534,55.7796544813,41.3989392738
							12.5168853627,55.7796544855,41.4006935310
							12.5168853616,55.7796544835,41.4013596991
							12.5168853637,55.7796544832,41.4045910388
							12.5168853783,55.7796544762,41.4010210908
							12.5168854051,55.7796545021,41.3991039637
							12.5168854243,55.7796544963,41.3984100039
							12.5168854383,55.7796545031,41.3970592841
							12.5168854558,55.7796544943,41.3990286485
							12.5168854661,55.7796544927,41.3985552593
							12.5168854937,55.7796545058,41.3983312199
							12.5168855228,55.7796545214,41.3986605499
							12.5168855429,55.7796545359,41.3985406736
							12.5168855614,55.7796545484,41.4019867971
							12.5168855893,55.7796545591,41.4003762569
							12.5168855968,55.7796545884,41.4025201032
							12.5168856455,55.7796546090,41.4015431728
							12.5168856715,55.7796546011,41.3955260179
							12.5168856857,55.7796545995,41.3964156840
							12.5168857047,55.7796546054,41.3960764180
							12.5168856938,55.7796545966,41.4001284611
							12.5168857194,55.7796545946,41.3989766837
							12.5168857292,55.7796545726,41.3988237182
							12.5168857144,55.7796545568,41.3957579752
							12.5168857232,55.7796545633,41.3949523417
							12.5168857324,55.7796545682,41.3929643817
							12.5168857424,55.7796545742,41.3909897401
							12.5168857624,55.7796545630,41.3875913319
							12.5168857757,55.7796545516,41.3856246241
							12.5168857746,55.7796545469,41.3841714495
							12.5168857713,55.7796545321,41.3865341878
							12.5168857681,55.7796544916,41.3844978321
							12.5168857829,55.7796544896,41.3824553587
							12.5168857734,55.7796544520,41.3812954971
							12.5168857633,55.7796544265,41.3820277258
							12.5168857803,55.7796544238,41.3858191741
							12.5168857589,55.7796543947,41.3841349680
							12.5168857626,55.7796543879,41.3829965497
							12.5168857572,55.7796543878,41.3843249355
							12.5168857198,55.7796543636,41.3847073541
							12.5168857106,55.7796543708,41.3809878931
							12.5168857035,55.7796543559,41.3790562051
							12.5168857176,55.7796543763,41.3784222967
							12.5168857242,55.7796543717,41.3758873758
							12.5168857360,55.7796543634,41.3776675284
							12.5168857418,55.7796543584,41.3749291474
							12.5168857410,55.7796543691,41.3727693134
							12.5168857197,55.7796543458,41.3706034777
							12.5168856934,55.7796543179,41.3707706607
							12.5168856858,55.7796542964,41.3691059746
							12.5168856954,55.7796542923,41.3711379433
							12.5168856728,55.7796542668,41.3727995267
							12.5168856410,55.7796542658,41.3710872643
							12.5168856162,55.7796542323,41.3698522791
							12.5168856170,55.7796542132,41.3710849954
							12.5168856151,55.7796541913,41.3671507415
							12.5168855652,55.7796541626,41.3679853838
							12.5168855406,55.7796541472,41.3677488123
							12.5168854977,55.7796541423,41.3658217781
							12.5168854697,55.7796541313,41.3647142686
							12.5168854629,55.7796541090,41.3640027769
							12.5168854369,55.7796541036,41.3654938714
							12.5168854295,55.7796540839,41.3659754228
							12.5168854034,55.7796540810,41.3635227258
							12.5168854011,55.7796540817,41.3629080704
							12.5168853840,55.7796540534,41.3600460473
							12.5168853761,55.7796540618,41.3610520417
							12.5168853806,55.7796540628,41.3620401932
							12.5168853803,55.7796540590,41.3645870905
							12.5168853896,55.7796540510,41.3630333270
							12.5168853896,55.7796540299,41.3603574905
							12.5168854103,55.7796540081,41.3555769417
							12.5168853909,55.7796540360,41.3538854948
							12.5168853972,55.7796540560,41.3531215419
							12.5168854350,55.7796540593,41.3525316861
							12.5168854498,55.7796540549,41.3505995146
							12.5168854632,55.7796540433,41.3480120509
							12.5168854793,55.7796540727,41.3489212299
							12.5168854898,55.7796540948,41.3448163502
							12.5168854828,55.7796541101,41.3479976840
							12.5168854985,55.7796541283,41.3482179541
							12.5168854963,55.7796541258,41.3486219052
							12.5168854826,55.7796541388,41.3502329365
							12.5168855117,55.7796541510,41.3485198177
							12.5168855242,55.7796541595,41.3470844486
							12.5168855221,55.7796541531,41.3478422381
							12.5168855215,55.7796541744,41.3491702277
							12.5168855254,55.7796541805,41.3477421057
							12.5168855089,55.7796541810,41.3462346464
							12.5168854992,55.7796541720,41.3456564275
							12.5168855377,55.7796541813,41.3447108813
							12.5168855706,55.7796541814,41.3438471727
							12.5168855793,55.7796541759,41.3451577529
							12.5168856033,55.7796541807,41.3468580427
							12.5168856310,55.7796541865,41.3453383468
							12.5168856404,55.7796541790,41.3466394611
							12.5168856689,55.7796541733,41.3473325654
							12.5168856732,55.7796541648,41.3444481249
							12.5168856791,55.7796541702,41.3480316515
							12.5168856712,55.7796541776,41.3486467612
							12.5168856660,55.7796541855,41.3491642151
							12.5168856880,55.7796541959,41.3483995567
							12.5168856907,55.7796542315,41.3441604063
							12.5168856889,55.7796542325,41.3440044832
							12.5168857156,55.7796542509,41.3429033508
							12.5168857399,55.7796542765,41.3408325588
							12.5168857431,55.7796542951,41.3382193603
							12.5168857385,55.7796543138,41.3386322440
							12.5168857428,55.7796543463,41.3373548545
							12.5168857400,55.7796543746,41.3371866555
							12.5168857194,55.7796544116,41.3354663527
							12.5168857246,55.7796544260,41.3351342991
							12.5168857114,55.7796544183,41.3337379696
							12.5168857301,55.7796544372,41.3310899750
							12.5168857319,55.7796544408,41.3324696909
							12.5168857304,55.7796544586,41.3300592890
							12.5168857034,55.7796544720,41.3300893478
							12.5168856682,55.7796544570,41.3293844525
							12.5168856729,55.7796544579,41.3285918852
							12.5168856611,55.7796544582,41.3260857224
							12.5168856754,55.7796544790,41.3283826392
							12.5168856851,55.7796544709,41.3269206348
							12.5168856904,55.7796544648,41.3289814175
							12.5168856921,55.7796544576,41.3287705423
							12.5168856818,55.7796544611,41.3292553873
							12.5168856830,55.7796544549,41.3316637449
							12.5168856860,55.7796544448,41.3298442426
							12.5168856888,55.7796544521,41.3308762198
							12.5168856596,55.7796544616,41.3327481181
							12.5168856537,55.7796544575,41.3329383984
							12.5168856739,55.7796544822,41.3354314964
							12.5168856246,55.7796544776,41.3405897280
							12.5168856063,55.7796544892,41.3414747111
							12.5168855866,55.7796544806,41.3433335112
							12.5168855632,55.7796544769,41.3433564526
							12.5168855482,55.7796544842,41.3416891470
							12.5168855230,55.7796545097,41.3437058642
							12.5168855189,55.7796545240,41.3459772258
							12.5168854878,55.7796545416,41.3467886460
							12.5168854628,55.7796545695,41.3504534246
							12.5168854567,55.7796545952,41.3538733336
							12.5168854305,55.7796546129,41.3555816676
							12.5168854071,55.7796546279,41.3559720134
							12.5168853973,55.7796546297,41.3526727136
							12.5168853697,55.7796546393,41.3507576200
							12.5168853396,55.7796546498,41.3506211096
							12.5168853174,55.7796546582,41.3486032180
							12.5168852730,55.7796546843,41.3510962421
							12.5168852305,55.7796546753,41.3555014247
							12.5168852003,55.7796546799,41.3545655659
							12.5168851519,55.7796546773,41.3557175053
							12.5168851306,55.7796546846,41.3557236429
							12.5168850978,55.7796546979,41.3559622484
							12.5168850699,55.7796547134,41.3600505578
							12.5168850425,55.7796547064,41.3595829411
							12.5168850192,55.7796546865,41.3627707395
							12.5168849920,55.7796547084,41.3631270327
							12.5168849635,55.7796547197,41.3655395567
							12.5168849500,55.7796547196,41.3652976626
							12.5168849363,55.7796547188,41.3629577441
							12.5168848948,55.7796547100,41.3606978246
							12.5168848723,55.7796547151,41.3622657384
							12.5168848358,55.7796547372,41.3633823646
							12.5168848105,55.7796547382,41.3624947969
							12.5168848020,55.7796547347,41.3639564440
							12.5168847854,55.7796547346,41.3627885620
							12.5168847864,55.7796547448,41.3628132240
							12.5168847639,55.7796547464,41.3622448149
							12.5168847502,55.7796547713,41.3656376557
							12.5168847342,55.7796547765,41.3629439882
							12.5168847320,55.7796547942,41.3633589602
							12.5168847198,55.7796548016,41.3612094864
							12.5168847151,55.7796548117,41.3593785445
							12.5168847276,55.7796548314,41.3570854852
							12.5168847024,55.7796548372,41.3569118069
							12.5168847012,55.7796548438,41.3565000546
							12.5168847020,55.7796548646,41.3560621006
							12.5168847129,55.7796548965,41.3529144198
							12.5168847030,55.7796549086,41.3550102272
							12.5168847051,55.7796549094,41.3545705844
							12.5168846961,55.7796549036,41.3554283472
							12.5168846807,55.7796549128,41.3576309671
							12.5168846679,55.7796549239,41.3545800321
							12.5168846485,55.7796549205,41.3534276267
							12.5168846397,55.7796549260,41.3562104173
							12.5168846341,55.7796549118,41.3551869817
							12.5168846156,55.7796548994,41.3517824510
							12.5168845769,55.7796548844,41.3511596951
							12.5168845379,55.7796549004,41.3531623424
							12.5168844955,55.7796549052,41.3572245875
							12.5168844817,55.7796549117,41.3562920025
							12.5168844777,55.7796549030,41.3573807022
							12.5168844587,55.7796549083,41.3584000888
							12.5168844609,55.7796549139,41.3576322920
							12.5168844526,55.7796548934,41.3597577640
							12.5168844104,55.7796548866,41.3598735483
							12.5168843859,55.7796548760,41.3628708493
							12.5168843634,55.7796548779,41.3652647614
							12.5168843317,55.7796548977,41.3699108790
							12.5168843324,55.7796548753,41.3706827440
							12.5168843168,55.7796548726,41.3703396198
							12.5168842939,55.7796548770,41.3722734922
							12.5168843062,55.7796548754,41.3707535785
							12.5168842816,55.7796548668,41.3710119704
							12.5168842774,55.7796548713,41.3735902927
							12.5168842665,55.7796548873,41.3731749213
							12.5168842479,55.7796548809,41.3752638066
							12.5168842450,55.7796548833,41.3763743319
							12.5168842417,55.7796548941,41.3760690932
							12.5168842358,55.7796548882,41.3775546673
							12.5168842283,55.7796548923,41.3794988358
							12.5168842099,55.7796548708,41.3804613405
							12.5168842264,55.7796548592,41.3803521722
							12.5168842299,55.7796548517,41.3805131079
							12.5168842476,55.7796548417,41.3809589585
							12.5168842446,55.7796548465,41.3833090859
							12.5168842630,55.7796548180,41.3813653316
							12.5168842823,55.7796548008,41.3828392455
							12.5168842619,55.7796548012,41.3833520405
							12.5168842664,55.7796547999,41.3839727673
							12.5168842917,55.7796548000,41.3851731144
							12.5168842933,55.7796547912,41.3848688216
							12.5168842995,55.7796547778,41.3843508187
							12.5168842943,55.7796547936,41.3867191112
							12.5168842901,55.7796548124,41.3852045921
							12.5168843017,55.7796548070,41.3861378657
							12.5168842982,55.7796547867,41.3879766101
							12.5168843282,55.7796547800,41.3868144549
							12.5168843149,55.7796547941,41.3864296040
							12.5168843232,55.7796548039,41.3882467774
							12.5168843246,55.7796548171,41.3875239854
							12.5168843169,55.7796548129,41.3862702855
							12.5168843460,55.7796547951,41.3846722365
							12.5168843416,55.7796547739,41.3830146871
							12.5168843480,55.7796547894,41.3850364421
							12.5168843367,55.7796547762,41.3853632370
							12.5168843291,55.7796547634,41.3856083271
							12.5168843341,55.7796547670,41.3846403827
							12.5168843265,55.7796547646,41.3869622478
							12.5168843258,55.7796547460,41.3880519760
							12.5168843538,55.7796547687,41.3867985302
							12.5168843476,55.7796547586,41.3869520998
							12.5168843175,55.7796547284,41.3863383354
							12.5168843254,55.7796547269,41.3854957410
							12.5168843149,55.7796547053,41.3884232858
							12.5168843183,55.7796546925,41.3917019248
							12.5168843021,55.7796546836,41.3958144218
							12.5168842892,55.7796546653,41.3975717735
							12.5168842802,55.7796546405,41.3988109668
							12.5168842856,55.7796546350,41.4005685709
							12.5168842887,55.7796546331,41.4007313212
							12.5168842943,55.7796546194,41.4024130603
							12.5168842758,55.7796546283,41.4040838524
							12.5168842593,55.7796546203,41.4044797714
							12.5168842643,55.7796546436,41.4048615076
							12.5168842764,55.7796546175,41.4040978224
							12.5168842700,55.7796545953,41.4046024489
							12.5168842683,55.7796545861,41.4081069221
							12.5168842533,55.7796545703,41.4067793134
							12.5168842545,55.7796545681,41.4091731342
							12.5168842437,55.7796545625,41.4107077839
							12.5168842278,55.7796545600,41.4131487749
							12.5168842390,55.7796545638,41.4161857637
							12.5168842347,55.7796545498,41.4183255782
							12.5168842456,55.7796545325,41.4182087862
							12.5168842379,55.7796545364,41.4209126818
							12.5168842371,55.7796545225,41.4225103944
							12.5168842218,55.7796545279,41.4234403156
							12.5168842185,55.7796545055,41.4232532670
							12.5168842172,55.7796545255,41.4273288696
							12.5168842153,55.7796545220,41.4299061700
							12.5168842127,55.7796545298,41.4294957560
							12.5168842128,55.7796545101,41.4318675137
							12.5168841878,55.7796545002,41.4322225759
							12.5168841649,55.7796544834,41.4326496396
							12.5168841440,55.7796544720,41.4309211543
							12.5168841225,55.7796544639,41.4331514633
							12.5168841033,55.7796544532,41.4364065807
							12.5168841262,55.7796544521,41.4335601418
							12.5168841157,55.7796544445,41.4361854034
							12.5168841116,55.7796544373,41.4336655846
							12.5168841199,55.7796544393,41.4355305476
							12.5168841065,55.7796544293,41.4362598359
							12.5168840905,55.7796544453,41.4386587130
							12.5168840733,55.7796544696,41.4409397727
							12.5168840910,55.7796544603,41.4386916850
							12.5168840616,55.7796544634,41.4399139355
							12.5168840551,55.7796544608,41.4390321404
							12.5168840473,55.7796544782,41.4421078968
							12.5168840358,55.7796544852,41.4431838320
							12.5168840254,55.7796544884,41.4450914462
							12.5168840137,55.7796544934,41.4484795177
							12.5168840093,55.7796545033,41.4481626103
							12.5168840277,55.7796545168,41.4511170104
							12.5168840257,55.7796545218,41.4481699124
							12.5168840378,55.7796545334,41.4463720372
							12.5168840387,55.7796545416,41.4482894005
							12.5168840664,55.7796545427,41.4465922977
							12.5168840728,55.7796545548,41.4441248376
							12.5168840787,55.7796545507,41.4442772787
							12.5168840736,55.7796545397,41.4452797643
							12.5168840960,55.7796545501,41.4454076323
							12.5168840948,55.7796545356,41.4432038602
							12.5168841159,55.7796545313,41.4450074282
							12.5168841414,55.7796545426,41.4444599355
							12.5168841460,55.7796545293,41.4435509170
							12.5168841731,55.7796545309,41.4466877014
							12.5168841868,55.7796545480,41.4487599557
							12.5168841891,55.7796545512,41.4501146728
							12.5168842108,55.7796545615,41.4502639741
							12.5168841861,55.7796545395,41.4471327062
							12.5168841940,55.7796545311,41.4462234325
							12.5168841664,55.7796545120,41.4476749890
							12.5168841478,55.7796545177,41.4467978664
							12.5168841466,55.7796545131,41.4469057795
							12.5168841221,55.7796544766,41.4492601399
							12.5168840884,55.7796544611,41.4483245479
							12.5168840775,55.7796544463,41.4481993272
							12.5168840580,55.7796544462,41.4470043084
							12.5168840554,55.7796544516,41.4456029350
							12.5168840305,55.7796544445,41.4505088278
							12.5168840356,55.7796544229,41.4510454863
							12.5168840217,55.7796544427,41.4532350240
							12.5168839906,55.7796544407,41.4513915542
							12.5168839977,55.7796544369,41.4526323373
							12.5168839842,55.7796544311,41.4501039647
							12.5168839946,55.7796544347,41.4504219739
							12.5168839823,55.7796544213,41.4496408995
							12.5168839750,55.7796544264,41.4505448402
							12.5168839720,55.7796544203,41.4498759243
							12.5168839657,55.7796544083,41.4461472944
							12.5168839789,55.7796544010,41.4453971492
							12.5168839529,55.7796543907,41.4459572000
							12.5168839573,55.7796543949,41.4470773544
							12.5168839506,55.7796543832,41.4472806651
							12.5168839648,55.7796543798,41.4481506898
							12.5168839574,55.7796543693,41.4455732429
							12.5168839638,55.7796543969,41.4481661307
							12.5168839641,55.7796543980,41.4511039229
							12.5168839480,55.7796543878,41.4524219812
							12.5168839540,55.7796543844,41.4507195690
							12.5168839441,55.7796543777,41.4559458928
							12.5168839326,55.7796543703,41.4575602862
							12.5168839144,55.7796543660,41.4607009197
							12.5168839139,55.7796543592,41.4593862665
							12.5168839009,55.7796543455,41.4602417272
							12.5168838914,55.7796543286,41.4603612138
							12.5168839045,55.7796543198,41.4610273770
							12.5168839035,55.7796543132,41.4605094227
							12.5168839415,55.7796543104,41.4623901230
							12.5168839543,55.7796543067,41.4604851694
							12.5168839667,55.7796543079,41.4584358838
							12.5168840045,55.7796543220,41.4603706197
							12.5168839896,55.7796543084,41.4607760172
							12.5168840123,55.7796543230,41.4644143682
							12.5168840319,55.7796543230,41.4634072327
							12.5168840621,55.7796543183,41.4626053883
							12.5168840476,55.7796543210,41.4656900200
							12.5168840749,55.7796543418,41.4654662474
							12.5168840787,55.7796543207,41.4612728583
							12.5168840880,55.7796543258,41.4621335806
							12.5168840933,55.7796543198,41.4598097879
							12.5168841193,55.7796543495,41.4569287782
							12.5168841305,55.7796543469,41.4565563866
							12.5168841370,55.7796543515,41.4552139245
							12.5168841346,55.7796543350,41.4576597923
							12.5168841308,55.7796543227,41.4577818895
							12.5168841389,55.7796543206,41.4606283103
							12.5168841232,55.7796543300,41.4606319376
							12.5168841298,55.7796543141,41.4611686636
							12.5168841295,55.7796542811,41.4639115142
							12.5168841085,55.7796542471,41.4655817723
							12.5168841067,55.7796542450,41.4652547959
							12.5168840687,55.7796542082,41.4650536073
							12.5168840435,55.7796541705,41.4697384222
							12.5168840055,55.7796541458,41.4717139520
							12.5168839619,55.7796541289,41.4757841199
							12.5168839487,55.7796541210,41.4731150236
							12.5168839357,55.7796540882,41.4725550322
							12.5168839331,55.7796540897,41.4737218008
							12.5168839258,55.7796540560,41.4738146489
							12.5168838882,55.7796540320,41.4740819676
							12.5168838788,55.7796540185,41.4748700507
							12.5168838563,55.7796539998,41.4716459035
							12.5168838554,55.7796539831,41.4739614713
							12.5168838527,55.7796539755,41.4729581038
							12.5168838816,55.7796539532,41.4733457965
							12.5168839095,55.7796539337,41.4716007721
							12.5168838788,55.7796539031,41.4741642522
							12.5168838604,55.7796538907,41.4748082201
							12.5168838546,55.7796538801,41.4760038692
							12.5168838463,55.7796538594,41.4775944108
							12.5168838408,55.7796538432,41.4807634863
							12.5168838403,55.7796538157,41.4805939748
							12.5168838643,55.7796537807,41.4794187515
							12.5168839080,55.7796537851,41.4759040630
							12.5168839158,55.7796537821,41.4766661180
							12.5168839246,55.7796537728,41.4769509988
							12.5168839303,55.7796537551,41.4752109270
							12.5168839340,55.7796537318,41.4724318085
							12.5168839456,55.7796537149,41.4722375867
							12.5168839733,55.7796537033,41.4743654792
							12.5168839658,55.7796536949,41.4743392136
							12.5168839484,55.7796536807,41.4739176695
							12.5168839890,55.7796536793,41.4721600554
							12.5168839876,55.7796536545,41.4694196385
							12.5168840003,55.7796536524,41.4697087766
							12.5168839948,55.7796536365,41.4704537796
							12.5168839801,55.7796536228,41.4675660540
							12.5168839706,55.7796536103,41.4701254692
							12.5168839629,55.7796535826,41.4701487511
							12.5168839441,55.7796535636,41.4717309120
							12.5168839277,55.7796535406,41.4738512819
							12.5168839062,55.7796535341,41.4740784381
							12.5168838856,55.7796535228,41.4742906211
							12.5168838606,55.7796535208,41.4734318911
							12.5168838421,55.7796535040,41.4714879283
							12.5168838386,55.7796535037,41.4726042002
							12.5168838310,55.7796535118,41.4725945121
							12.5168838408,55.7796535246,41.4738655453
							12.5168838281,55.7796535268,41.4712607142
							12.5168838220,55.7796535185,41.4694807906
							12.5168838417,55.7796535223,41.4702111881
							12.5168838382,55.7796535301,41.4704526587
							12.5168838285,55.7796535302,41.4686874810
							12.5168838286,55.7796535398,41.4686428082
							12.5168838105,55.7796535294,41.4676720139
							12.5168838299,55.7796535334,41.4680302733
							12.5168838018,55.7796535268,41.4690480009
							12.5168838053,55.7796535259,41.4668743144
							12.5168837811,55.7796535275,41.4677810645
							12.5168837844,55.7796535230,41.4672793626
							12.5168837929,55.7796535153,41.4669973385
							12.5168837948,55.7796535232,41.4677331427
							12.5168837835,55.7796535420,41.4628793900
							12.5168837714,55.7796535481,41.4604736098
							12.5168837732,55.7796535511,41.4664091742
							12.5168837578,55.7796535420,41.4653721567
							12.5168837444,55.7796535377,41.4665643157
							12.5168837452,55.7796535263,41.4668160407
							12.5168837366,55.7796535179,41.4647489459
							12.5168837332,55.7796535258,41.4661844195
							12.5168836903,55.7796535161,41.4693210448
							12.5168836884,55.7796535330,41.4677749323
							12.5168836927,55.7796535244,41.4646906776
							12.5168836993,55.7796535242,41.4639759986
							12.5168837016,55.7796535306,41.4648087497
							12.5168837198,55.7796535427,41.4609500806
							12.5168837100,55.7796535553,41.4619844248
							12.5168837240,55.7796535576,41.4587496693
							12.5168837187,55.7796535516,41.4595356925
							12.5168837015,55.7796535418,41.4584291866
							12.5168836730,55.7796535333,41.4577642298
							12.5168836497,55.7796535443,41.4537315786
							12.5168836274,55.7796535607,41.4539186445
							12.5168836191,55.7796535452,41.4511616523
							12.5168835998,55.7796535412,41.4509285575
							12.5168835708,55.7796535276,41.4510240926
							12.5168835636,55.7796535159,41.4488062223
							12.5168835552,55.7796534964,41.4497118750
							12.5168835333,55.7796535017,41.4504428244
							12.5168835105,55.7796535049,41.4478368736
							12.5168835173,55.7796534966,41.4440206048
							12.5168834880,55.7796534771,41.4411548452
							12.5168834869,55.7796534849,41.4414160821
							12.5168834906,55.7796534753,41.4423245743
							12.5168835125,55.7796534663,41.4426941804
							12.5168835048,55.7796534558,41.4418037403
							12.5168835385,55.7796534409,41.4375791453
							12.5168835484,55.7796534273,41.4394453431
							12.5168835506,55.7796534098,41.4375396501
							12.5168835457,55.7796533999,41.4367107673
							12.5168835282,55.7796533799,41.4367664435
							12.5168835594,55.7796533809,41.4362719500
							12.5168835549,55.7796533686,41.4361653538
							12.5168835607,55.7796533542,41.4346147934
							12.5168835636,55.7796533438,41.4357307419
							12.5168835852,55.7796533543,41.4363988438
							12.5168836353,55.7796533567,41.4330171223
							12.5168836776,55.7796533623,41.4274493794
							12.5168837313,55.7796533690,41.4273355094
							12.5168837688,55.7796533696,41.4259779681
							12.5168838227,55.7796533710,41.4252639442
							12.5168838684,55.7796533609,41.4247441549
							12.5168839091,55.7796533457,41.4210725486
							12.5168839448,55.7796533566,41.4197799030
							12.5168839594,55.7796533524,41.4197671102
							12.5168839950,55.7796533511,41.4169078291
							12.5168840414,55.7796533370,41.4160371779
							12.5168840772,55.7796533445,41.4149806077
							12.5168840670,55.7796533427,41.4131500223
							12.5168841107,55.7796533693,41.4108694458
							12.5168841464,55.7796533766,41.4095642788
							12.5168841913,55.7796533806,41.4094598475
							12.5168842422,55.7796533864,41.4056303732
							12.5168842406,55.7796533836,41.4079626648
							12.5168842650,55.7796533872,41.4081181257
							12.5168842777,55.7796533862,41.4093838111
							12.5168842968,55.7796533935,41.4098158936
							12.5168843218,55.7796533929,41.4078783268
							12.5168843219,55.7796533863,41.4100292098
							12.5168843609,55.7796533889,41.4080423897
							12.5168843682,55.7796534023,41.4090142903
							12.5168843585,55.7796534066,41.4099338308
							12.5168843630,55.7796534265,41.4097080954
							12.5168843753,55.7796534305,41.4121761090
							12.5168844039,55.7796534221,41.4092727919
							12.5168844236,55.7796534315,41.4069171074
							12.5168844413,55.7796534291,41.4084804586
							12.5168844587,55.7796534330,41.4090775163
							12.5168844536,55.7796534304,41.4109972613
							12.5168844614,55.7796534513,41.4084699107
							12.5168844514,55.7796534658,41.4070579644
							12.5168844579,55.7796534739,41.4058020055
							12.5168844536,55.7796534886,41.4029044876
							12.5168844721,55.7796535083,41.4000543915
							12.5168844593,55.7796535090,41.3996268834
							12.5168844723,55.7796535299,41.4008683267
							12.5168844709,55.7796535335,41.4000565921
							12.5168844953,55.7796535502,41.3987365978
							12.5168844995,55.7796535646,41.4001188124
							12.5168845186,55.7796535739,41.4010514901
							12.5168844936,55.7796535610,41.3999754810
							12.5168845027,55.7796535706,41.4000812316
							12.5168844896,55.7796535681,41.4005583953
							12.5168844986,55.7796535596,41.3990820541
							12.5168844980,55.7796535534,41.3989398764
							12.5168844719,55.7796535505,41.3996364663
							12.5168845002,55.7796535563,41.3978179873
							12.5168844692,55.7796535482,41.3991747792
							12.5168844790,55.7796535340,41.3983700575
							12.5168844512,55.7796535180,41.3970124686
							12.5168844561,55.7796535221,41.3968062045
							12.5168844384,55.7796535363,41.3970987349
							12.5168844182,55.7796535552,41.3965391790
							12.5168844148,55.7796535364,41.3954667423
							12.5168844055,55.7796535308,41.3948564266
							12.5168844098,55.7796535332,41.3938540937
							12.5168843945,55.7796535421,41.3936418145
							12.5168843896,55.7796535410,41.3946504692
							12.5168844268,55.7796535671,41.3950119698
							12.5168844455,55.7796535442,41.3931823751
							12.5168844491,55.7796535343,41.3924781753
							12.5168844815,55.7796535398,41.3880175300
							12.5168844969,55.7796535506,41.3874756251
							12.5168845133,55.7796535657,41.3882699386
							12.5168845497,55.7796535712,41.3881839438
							12.5168845638,55.7796535832,41.3860007151
							12.5168845972,55.7796535803,41.3855955744
							12.5168846081,55.7796535915,41.3835738111
							12.5168846338,55.7796535952,41.3821868196
							12.5168846312,55.7796536179,41.3859790307
							12.5168846550,55.7796536359,41.3887881034
							12.5168846581,55.7796536421,41.3866179595
							12.5168846513,55.7796536480,41.3882982339
							12.5168846764,55.7796536716,41.3907507174
							12.5168846802,55.7796536990,41.3900036623
							12.5168846997,55.7796536996,41.3883197001
							12.5168847034,55.7796537010,41.3898937109
							12.5168846978,55.7796537019,41.3934664330
							12.5168847091,55.7796537065,41.3958233343
							12.5168847224,55.7796537220,41.4000653605
							12.5168847523,55.7796537164,41.4007263339
							12.5168847595,55.7796537312,41.4042220388
							12.5168847596,55.7796537314,41.4055377269
							12.5168847871,55.7796537445,41.4030419588
							12.5168847865,55.7796537554,41.4063026499
							12.5168847736,55.7796537557,41.4055533143
							12.5168847576,55.7796537652,41.4066631311
							12.5168847494,55.7796537784,41.4032514634
							12.5168847381,55.7796537848,41.4036419577
							12.5168847669,55.7796537884,41.4037310415
							12.5168847511,55.7796538033,41.4001581313
							12.5168847541,55.7796538149,41.3996118959
							12.5168847478,55.7796538504,41.4011165660
							12.5168847411,55.7796538718,41.4005440318
							12.5168847527,55.7796538820,41.3983027711
							12.5168847620,55.7796539009,41.4010192665
							12.5168847487,55.7796539491,41.4033904627
							12.5168847260,55.7796539650,41.4023651525
							12.5168847213,55.7796539795,41.4029409712
							12.5168847097,55.7796539962,41.4023918321
							12.5168847152,55.7796540204,41.4028417852
							12.5168847064,55.7796540212,41.4052601353
							12.5168847067,55.7796540300,41.4031285753
							12.5168847139,55.7796540278,41.4031121597
							12.5168847190,55.7796540426,41.4036510262
							12.5168847196,55.7796540592,41.4047193786
							12.5168847403,55.7796540665,41.4041131518
							12.5168847514,55.7796540651,41.4053977056
							12.5168847641,55.7796540732,41.4075375218
							12.5168848018,55.7796540786,41.4071896330
							12.5168848061,55.7796540902,41.4087681495
							12.5168848095,55.7796540959,41.4060950520
							12.5168848424,55.7796540881,41.4107626086
							12.5168848786,55.7796540873,41.4085600429
							12.5168849098,55.7796540856,41.4077155497
							12.5168849353,55.7796540853,41.4067325573
							12.5168849896,55.7796541065,41.4054731903
							12.5168850142,55.7796541055,41.4061135737
							12.5168850139,55.7796541179,41.4054510442
							12.5168850324,55.7796541080,41.4022251658
							12.5168850620,55.7796541122,41.3994698999
							12.5168850693,55.7796541134,41.3966694828
							12.5168850945,55.7796541144,41.3959808943
							12.5168851149,55.7796541199,41.3974267642
							12.5168851246,55.7796541374,41.3957216760
							12.5168851470,55.7796541549,41.3937562550
							12.5168851689,55.7796541402,41.3916108727
							12.5168852167,55.7796541478,41.3909991357
							12.5168852331,55.7796541502,41.3916008928
							12.5168852670,55.7796541675,41.3862795717
							12.5168852652,55.7796541888,41.3878980046
							12.5168852779,55.7796541835,41.3845487313
							12.5168852927,55.7796542111,41.3840645952
							12.5168852999,55.7796542179,41.3824134054
							12.5168852824,55.7796542415,41.3854605679
							12.5168852826,55.7796542596,41.3839686855
							12.5168852929,55.7796542750,41.3818366440
							12.5168852909,55.7796542813,41.3799761037
							12.5168852840,55.7796542839,41.3787311790
							12.5168852805,55.7796542866,41.3757550936
							12.5168852862,55.7796543179,41.3779993060
							12.5168852733,55.7796543208,41.3774796672
							12.5168852641,55.7796543363,41.3774373427
							12.5168852860,55.7796543662,41.3760322847
							12.5168852708,55.7796543705,41.3766227202
							12.5168852792,55.7796543910,41.3790530399
							12.5168852799,55.7796544134,41.3800265613
							12.5168852797,55.7796544311,41.3767681022
							12.5168852780,55.7796544424,41.3748364354
							12.5168852723,55.7796544795,41.3770314751
							12.5168852858,55.7796544997,41.3733591373
							12.5168852751,55.7796545142,41.3699410477
							12.5168852676,55.7796545586,41.3715793182
							12.5168852637,55.7796545625,41.3716428287
							12.5168852356,55.7796545824,41.3728529452
							12.5168852419,55.7796546144,41.3718925505
							12.5168852465,55.7796546403,41.3709810134
							12.5168852591,55.7796546789,41.3690359943
							12.5168852513,55.7796547166,41.3667507206
							12.5168852358,55.7796547399,41.3657775446
							12.5168852498,55.7796547517,41.3665424955
							12.5168852534,55.7796547821,41.3670295333
							12.5168852443,55.7796548113,41.3675240801
							12.5168852355,55.7796548452,41.3681953468
							12.5168852452,55.7796548574,41.3681959248
							12.5168852449,55.7796548551,41.3689903847
							12.5168852561,55.7796548744,41.3646883375
							12.5168852514,55.7796549021,41.3641111675
							12.5168852015,55.7796549256,41.3651155225
							12.5168852052,55.7796549216,41.3630492582
							12.5168852131,55.7796549327,41.3597722174
							12.5168852342,55.7796549286,41.3598038189

<!-- Writting trailer -->

						</coordinates>
					<tessellate>1</tessellate>
				</LineString>
			</MultiGeometry>
			<description>
<![CDATA[<span style="color:#222222;"><b>-First Epoch:</b></span><br>TOW=[374999000ms]<br>PVT Mode=6<br>NrSv=36<br> 	BaseStationID=121<br>meanCorrAge=267<br>]]><![CDATA[<br>]]>
<![CDATA[<span style="color:#222222;"><b>-Last Epoch:</b></span><br>TOW=[375950000ms]<br>PVT Mode=6<br>NrSv=35<br> 	BaseStationID=121<br>meanCorrAge=267<br>]]><![CDATA[<br>]]>

			</description>
		</Placemark>

<!-- Writting end of PVT section in KML -->
		<Placemark>
			<name>END</name>
				<LookAt>
					<longitude>12.516885</longitude>
					<latitude>55.779655</latitude>
					<altitude>41.359804</altitude>
				</LookAt>
			<TimeStamp>2026-03-05T08:25:50Z</TimeStamp>
			<Point>
				<coordinates>12.516885,55.779655,41.359804</coordinates>
				<altitudeMode>clampToGround</altitudeMode>
			</Point>
			<description>This the end of the whole logging track</description>
			<styleUrl>#end</styleUrl>
		</Placemark>
	</Folder>

<!-- Create folders for Events (0) -->

<!-- Create folders for Attitude every 0 epochs (0) -->

<!-- Create folders for Satellite positions (0) -->

<!-- Create folders for BaseStation positions (0) -->

<!-- Write the trailer of file -->
	<Style id="gv_legend">
		<IconStyle>
			<Icon>
			<href><![CDATA[root://icons/palette-2.png?x=224&y=192&h=32&w=32]]></href>
			</Icon>
		</IconStyle>
	</Style>
	<Style id="end">
		<IconStyle>
			<Icon>
			<href><![CDATA[root://icons/palette-4.png?x=224&y=192&h=32&w=32]]></href>
			</Icon>
		</IconStyle>
	</Style>
	<Style id="start">
		<IconStyle>
			<Icon>
			<href><![CDATA[root://icons/palette-4.png?x=192&h=32&w=32]]></href>
			</Icon>
		</IconStyle>
	</Style>
	<Style id="error">
		<IconStyle>
			<scale>0.500000</scale>
			<Icon>
			<href><![CDATA[root://icons/palette-3.png?x=128&y=32&h=32&w=32]]></href>
			</Icon>
		</IconStyle>
		<LabelStyle>
			<scale>0.600000</scale>
		</LabelStyle>
	</Style>
	<Style id="extevnt">
		<IconStyle>
			<scale>0.500000</scale>
			<Icon>
			<href><![CDATA[root://icons/palette-2.png?x=64&y=192&h=32&w=32]]></href>
			</Icon>
		</IconStyle>
		<LabelStyle>
			<scale>0.600000</scale>
		</LabelStyle>
	</Style>
	<Style id="change">
		<scale>0.500000</scale>
		<IconStyle>
			<Icon>
			<href><![CDATA[http://maps.google.com/mapfiles/kml/pushpin/ltblu-pushpin.png]]></href>
			</Icon>
		</IconStyle>
	</Style>
	<Style id="change0">
		<scale>0.500000</scale>
		<IconStyle>
			<Icon>
			<href><![CDATA[http://maps.google.com/mapfiles/kml/pushpin/red-pushpin.png]]></href>
			</Icon>
		</IconStyle>
	</Style>
	<Style id="change3">
		<scale>0.500000</scale>
		<IconStyle>
			<Icon>
			<href><![CDATA[http://maps.google.com/mapfiles/kml/pushpin/grn-pushpin.png]]></href>
			</Icon>
		</IconStyle>
	</Style>
	<Style id="change2">
		<scale>0.500000</scale>
		<IconStyle>
			<Icon>
			<href><![CDATA[http://maps.google.com/mapfiles/kml/pushpin/ltblu-pushpin.png]]></href>
			</Icon>
		</IconStyle>
	</Style>
	</Document>
</kml>
