<kml xmlns="http://earth.google.com/kml/2.0"><Document>
	<name>SBF File: ..\fw_gnss2.sbf</name>
	<ScreenOverlay id="RxControl - Septentrio">
	<name>Septentrio Logo</name>
	<description></description>
	<Icon><href>https://www.septentrio.com/gfx/logo180x60_v2.gif</href></Icon>
	<overlayXY x="0.0" y="1.0" xunits="fraction" yunits="fraction"/>
	<screenXY x="0.0" y="1.0" xunits="fraction" yunits="fraction"/>
	<rotation>0.0</rotation>
	<size x="0" y="0" xunits="pixels" yunits="pixels"/>
	<color>caffffff</color>	</ScreenOverlay>
	<ScreenOverlay id="Color Legend">
	<name>Color Legend</name>
	<description></description>
	<Icon><href>https://www.septentrio.com/images/PVTModes4.png</href></Icon>
	<overlayXY x="0.0" y="1.0" xunits="fraction" yunits="fraction"/>
	<screenXY x="0.0" y="0.35" xunits="fraction" yunits="fraction"/>
	<rotation>0.0</rotation>
	<size x="0" y="0" xunits="pixels" yunits="pixels"/>
	<color>7affffff</color>	</ScreenOverlay>
	<Style id="radioFolderStyle"><ListStyle><listItemType>radioFolder</listItemType></ListStyle></Style>
	<Folder>
		<name>Color Legend: sbf2kml-2.9.0x
 Author: Septentrio (support@septentrio.com)</name>
		<Placemark>
			<name><![CDATA[<span style="color:#0000FF;"><b>Stand-Alone</b></span>]]></name>
			<styleUrl>#gv_legend</styleUrl>
			<visibility>1</visibility>
		</Placemark>
		<Placemark>
			<name><![CDATA[<span style="color:#FF9B14;"><b>Diff-PVT</b></span>]]></name>
			<styleUrl>#gv_legend</styleUrl>
			<visibility>1</visibility>
		</Placemark>
		<Placemark>
			<name><![CDATA[<span style="color:#917676;"><b>Fixed-Location</b></span>]]></name>
			<styleUrl>#gv_legend</styleUrl>
			<visibility>1</visibility>
		</Placemark>
		<Placemark>
			<name><![CDATA[<span style="color:#11FF11;"><b>RTK-fixed</b></span>]]></name>
			<styleUrl>#gv_legend</styleUrl>
			<visibility>1</visibility>
		</Placemark>
		<Placemark>
			<name><![CDATA[<span style="color:#710A7D;"><b>RTK-float</b></span>]]></name>
			<styleUrl>#gv_legend</styleUrl>
			<visibility>1</visibility>
		</Placemark>
		<Placemark>
			<name><![CDATA[<span style="color:#0AEBF7;"><b>SBAS Aided PVT</b></span>]]></name>
			<styleUrl>#gv_legend</styleUrl>
			<visibility>1</visibility>
		</Placemark>
	</Folder>
<!-- Start of pvt blocks reading -->
	<Folder>
		<name>Tracks/Wpnts for ..\fw_gnss2.sbf</name>
		<Placemark>
			<name>START</name>
				<LookAt>
					<longitude>12.517702</longitude>
					<latitude>55.779833</latitude>
					<altitude>41.338028</altitude>
				</LookAt>
			<TimeStamp>2026-03-05T08:32:31Z</TimeStamp>
			<Point>
				<coordinates>12.517702,55.779833,41.338028</coordinates>
				<altitudeMode>clampToGround</altitudeMode>
			</Point>
			<description>Start of logged file</description>
			<styleUrl>#start</styleUrl>
		</Placemark>
		<Placemark>
<!--M:6   S:805437705 -->
			<name><![CDATA[<span style="color:#0AEBF7;"><b>SBAS aided PVT (6)</b></span>]]></name>
			<Style>
				<LineStyle>
					<color>0xFFF7EB0A</color>
				</LineStyle>
			</Style>
			<MultiGeometry>
				<LineString>
					<altitudeMode>clampToGround</altitudeMode>
						<coordinates>
							12.5177018986,55.7798333710,41.3380278952
							12.5177013613,55.7798338693,41.3229500958
							12.5177014438,55.7798344007,41.3091298504
							12.5177014470,55.7798347957,41.2884536394
							12.5177016637,55.7798349460,41.2910505034
							12.5177021383,55.7798350229,41.2993589824
							12.5177025291,55.7798351574,41.2923371658
							12.5177033370,55.7798352312,41.2993865807
							12.5177041087,55.7798354174,41.2970312554
							12.5177046969,55.7798355267,41.2904090084
							12.5177052698,55.7798355617,41.2935451819
							12.5177061389,55.7798355627,41.3121954094
							12.5177067142,55.7798356851,41.3149001537
							12.5177074106,55.7798356324,41.3270815501
							12.5177076933,55.7798356467,41.3352649217
							12.5177079426,55.7798356404,41.3276199751
							12.5177081298,55.7798355938,41.3229398529
							12.5177083421,55.7798355557,41.3225035918
							12.5177085473,55.7798353849,41.3310265016
							12.5177086539,55.7798351455,41.3461488006
							12.5177089301,55.7798348888,41.3573953696
							12.5177090997,55.7798346291,41.3703998893
							12.5177092573,55.7798343225,41.3824696540
							12.5177093176,55.7798340705,41.3922696260
							12.5177092362,55.7798338203,41.4040895956
							12.5177091656,55.7798335543,41.4217862620
							12.5177090205,55.7798332618,41.4398947844
							12.5177088170,55.7798330852,41.4525964916
							12.5177086669,55.7798328328,41.4681746077
							12.5177084912,55.7798325806,41.4865234584
							12.5177084322,55.7798322360,41.5037074025
							12.5177084565,55.7798319538,41.5303718256
							12.5177083912,55.7798316749,41.5514989806
							12.5177083074,55.7798313996,41.5733191715
							12.5177083360,55.7798310287,41.5972015253
							12.5177084257,55.7798306933,41.6282944915
							12.5177083074,55.7798303517,41.6486916695
							12.5177082115,55.7798301041,41.6703282051
							12.5177079515,55.7798300038,41.6718252230
							12.5177078349,55.7798298541,41.6838327309
							12.5177076500,55.7798297908,41.6816070347
							12.5177075930,55.7798296359,41.7012689644
							12.5177073206,55.7798296023,41.7054766003
							12.5177072295,55.7798294941,41.7054694640
							12.5177072199,55.7798293861,41.7091462778
							12.5177073480,55.7798292696,41.7196699323
							12.5177072183,55.7798292281,41.7224754569
							12.5177072420,55.7798291223,41.7289955435
							12.5177072722,55.7798290686,41.7357979592
							12.5177072340,55.7798290082,41.7334276014
							12.5177071846,55.7798289734,41.7356008306
							12.5177072667,55.7798290004,41.7359371473
							12.5177072863,55.7798289959,41.7369177465
							12.5177074108,55.7798289854,41.7376324447
							12.5177073731,55.7798290528,41.7337571917
							12.5177074343,55.7798290412,41.7363449786
							12.5177075101,55.7798290326,41.7402109808
							12.5177076700,55.7798289657,41.7520861580
							12.5177077463,55.7798289255,41.7534075492
							12.5177079312,55.7798289118,41.7673843698
							12.5177080535,55.7798288564,41.7762080238
							12.5177081133,55.7798288135,41.7810090498
							12.5177083979,55.7798288068,41.7932280219
							12.5177089864,55.7798290253,41.7852033118
							12.5177094624,55.7798292938,41.7729244560
							12.5177098786,55.7798291969,41.7700026945
							12.5177103435,55.7798289207,41.7790624779
							12.5177109671,55.7798286065,41.8014677335
							12.5177116636,55.7798283737,41.8203867120
							12.5177120834,55.7798281643,41.8523568336
							12.5177128193,55.7798279885,41.8768107073
							12.5177135721,55.7798276560,41.8999340927
							12.5177143309,55.7798271411,41.9304572930
							12.5177146778,55.7798269231,41.9504552579
							12.5177150934,55.7798270970,41.9503451340
							12.5177154459,55.7798274680,41.9554350622
							12.5177155394,55.7798278543,41.9463028821
							12.5177154863,55.7798281907,41.9362657737
							12.5177155255,55.7798285722,41.9156464005
							12.5177156534,55.7798285862,41.9180294808
							12.5177158365,55.7798283880,41.9158292968
							12.5177157409,55.7798282061,41.9131485308
							12.5177154073,55.7798279491,41.9174319772
							12.5177149187,55.7798277414,41.9079310364
							12.5177145851,55.7798275924,41.9118851327
							12.5177145238,55.7798275728,41.8907554814
							12.5177143611,55.7798275859,41.8702852488
							12.5177143266,55.7798274962,41.8622714846
							12.5177142907,55.7798274264,41.8456133672
							12.5177139268,55.7798271798,41.8245766233
							12.5177141257,55.7798271586,41.8059620640
							12.5177147052,55.7798274399,41.7823166304
							12.5177157417,55.7798280142,41.7639337366
							12.5177164791,55.7798286311,41.7352781937
							12.5177167198,55.7798298530,41.7101479390
							12.5177169018,55.7798311806,41.6866102445
							12.5177160585,55.7798316326,41.6902660723
							12.5177151574,55.7798319666,41.6813144191
							12.5177137616,55.7798323463,41.6671300877
							12.5177126087,55.7798324704,41.6658854145
							12.5177117751,55.7798324069,41.6772604873
							12.5177109386,55.7798323574,41.6919830787
							12.5177102426,55.7798322538,41.6972480086
							12.5177095699,55.7798321883,41.6893059003
							12.5177089630,55.7798321955,41.6792153439
							12.5177087038,55.7798321899,41.6808350761
							12.5177083798,55.7798322340,41.6716701802
							12.5177083346,55.7798322772,41.6680616836
							12.5177084546,55.7798322370,41.6517106419
							12.5177083419,55.7798323026,41.6425704477
							12.5177078200,55.7798324108,41.6153966251
							12.5177074688,55.7798323697,41.6160122064
							12.5177068775,55.7798323330,41.6090710658
							12.5177064627,55.7798322418,41.6073411614
							12.5177061154,55.7798318963,41.6260803137
							12.5177058121,55.7798316087,41.6449038932
							12.5177054689,55.7798313392,41.6652068851
							12.5177051983,55.7798310098,41.6912703113
							12.5177050252,55.7798306097,41.7304658409
							12.5177048243,55.7798303822,41.7473281581
							12.5177046862,55.7798301959,41.7599306130
							12.5177042622,55.7798301250,41.7704281626
							12.5177040220,55.7798300079,41.7877035457
							12.5177038911,55.7798298216,41.7978367595
							12.5177037431,55.7798296147,41.8102002222
							12.5177035685,55.7798294648,41.8128575752
							12.5177034965,55.7798293859,41.8293858344
							12.5177032950,55.7798293327,41.8299070238
							12.5177031486,55.7798292604,41.8379468702
							12.5177029355,55.7798292048,41.8568729922
							12.5177020383,55.7798283531,41.8754455057
							12.5177019143,55.7798276375,41.9197829898
							12.5177022159,55.7798272202,41.9487439950
							12.5177026217,55.7798269661,41.9739285589
							12.5177029559,55.7798267672,41.9933989465
							12.5177034297,55.7798267804,42.0091978107
							12.5177038729,55.7798267514,42.0068203177
							12.5177044879,55.7798268387,42.0113362069
							12.5177049043,55.7798270805,42.0170828267
							12.5177049637,55.7798272831,42.0150823275
							12.5177047753,55.7798276090,42.0055416548
							12.5177045719,55.7798279984,42.0055811575
							12.5177043524,55.7798282694,42.0080199896
							12.5177045453,55.7798284113,42.0113572886
							12.5177047336,55.7798285424,42.0083663732
							12.5177049377,55.7798286869,42.0140392638
							12.5177050085,55.7798288596,42.0156458177
							12.5177048580,55.7798289362,42.0096746290
							12.5177047412,55.7798289577,42.0221936043
							12.5177045704,55.7798291102,42.0161149389
							12.5177045156,55.7798291463,42.0180453480
							12.5177044076,55.7798291785,42.0182386384
							12.5177045889,55.7798292051,42.0138144576
							12.5177045837,55.7798293109,42.0033033744
							12.5177046637,55.7798294629,41.9856126669
							12.5177046326,55.7798295403,41.9647356573
							12.5177046816,55.7798297324,41.9499172142
							12.5177046038,55.7798299408,41.9228652974
							12.5177045485,55.7798301114,41.9049994923
							12.5177048133,55.7798301967,41.9000124703
							12.5177052800,55.7798306422,41.8608632660
							12.5177062573,55.7798313362,41.8405885619
							12.5177065473,55.7798310873,41.8131433948
							12.5177071772,55.7798305932,41.8007017488
							12.5177077258,55.7798305588,41.7862865183
							12.5177078928,55.7798303876,41.7700540280
							12.5177077446,55.7798306326,41.7454874086
							12.5177074756,55.7798309359,41.7222061744
							12.5177074434,55.7798311295,41.7196165846
							12.5177072930,55.7798314829,41.6971932928
							12.5177071224,55.7798317688,41.6857358676
							12.5177073909,55.7798318351,41.6840477223
							12.5177074346,55.7798319075,41.6762292531
							12.5177075835,55.7798318980,41.6812396964
							12.5177073927,55.7798318288,41.6836663949
							12.5177072911,55.7798318162,41.6840819242
							12.5177071849,55.7798318339,41.6888682306
							12.5177070071,55.7798319289,41.6710368365
							12.5177066745,55.7798320683,41.6693730374
							12.5177063066,55.7798320981,41.6671767796
							12.5177061931,55.7798321087,41.6703895588
							12.5177056227,55.7798321021,41.6581021354
							12.5177053564,55.7798319653,41.6611822192
							12.5177051088,55.7798319430,41.6594257560
							12.5177048124,55.7798318917,41.6597415440
							12.5177048219,55.7798319664,41.6567182810
							12.5177048284,55.7798320430,41.6651405582
							12.5177045404,55.7798322103,41.6499575284
							12.5177044272,55.7798322940,41.6466448563
							12.5177045938,55.7798323284,41.6472193235
							12.5177047129,55.7798323092,41.6449852006
							12.5177050072,55.7798323872,41.6472755281
							12.5177050435,55.7798324774,41.6324284700
							12.5177051883,55.7798324062,41.6402219764
							12.5177051148,55.7798324440,41.6379370832
							12.5177051437,55.7798324392,41.6393114419
							12.5177050675,55.7798325083,41.6318335413
							12.5177048343,55.7798326047,41.6182669772
							12.5177049527,55.7798325902,41.6217429955
							12.5177050321,55.7798327118,41.5981475858
							12.5177051743,55.7798327323,41.5913498514
							12.5177051651,55.7798327404,41.5864333209
							12.5177050184,55.7798327583,41.5890408979
							12.5177048189,55.7798327586,41.5743229348
							12.5177045376,55.7798328073,41.5799679364
							12.5177045293,55.7798328798,41.5821384871
							12.5177042996,55.7798331362,41.5783008423
							12.5177037162,55.7798330213,41.5806296325
							12.5177027529,55.7798327582,41.5891495674
							12.5177018836,55.7798325118,41.6034308672
							12.5177013518,55.7798322424,41.6240040536
							12.5177011981,55.7798319146,41.6422673583
							12.5177009956,55.7798316383,41.6577634403
							12.5177011637,55.7798313273,41.6589013560
							12.5177012862,55.7798308446,41.6632899737
							12.5177023701,55.7798303189,41.6689196163
							12.5177035033,55.7798301573,41.6635032309
							12.5177042507,55.7798298222,41.6726587928
							12.5177044162,55.7798297610,41.6621321825
							12.5177041421,55.7798297553,41.6613928228
							12.5177037001,55.7798296670,41.6583751681
							12.5177036062,55.7798296084,41.6516377461
							12.5177031271,55.7798296450,41.6355484858
							12.5177027049,55.7798296179,41.6419113851
							12.5177021260,55.7798296736,41.6392195691
							12.5177016501,55.7798297047,41.6390637439
							12.5177014033,55.7798296257,41.6418803132
							12.5177013019,55.7798297471,41.6380735409
							12.5177013202,55.7798298259,41.6497821762
							12.5177014550,55.7798299059,41.6629507065
							12.5177014756,55.7798301180,41.6680261183
							12.5177015568,55.7798301771,41.6839861476
							12.5177012721,55.7798306416,41.7021662060
							12.5177006330,55.7798308275,41.7273848835
							12.5177000874,55.7798307526,41.7655423296
							12.5176994087,55.7798309024,41.7891037356
							12.5176990509,55.7798313074,41.7977453269
							12.5176985797,55.7798316350,41.8027249496
							12.5176987532,55.7798317675,41.8016681500
							12.5176989027,55.7798319954,41.8016032037
							12.5176990359,55.7798320004,41.8131517610
							12.5176990182,55.7798321576,41.8053210149
							12.5176988546,55.7798323586,41.7796192296
							12.5176990845,55.7798325730,41.7669617411
							12.5176995411,55.7798326530,41.7630982226
							12.5176998553,55.7798326764,41.7536135080
							12.5177001831,55.7798327245,41.7490638167
							12.5177007206,55.7798326999,41.7628030873
							12.5177009508,55.7798325881,41.7687464037
							12.5177010582,55.7798325864,41.7685122305
							12.5177011593,55.7798325399,41.7715504843
							12.5177011992,55.7798325715,41.7603585265
							12.5177013131,55.7798325432,41.7586814586
							12.5177017651,55.7798323780,41.7783554662
							12.5177022620,55.7798322851,41.7866389472
							12.5177026941,55.7798321720,41.8035657995
							12.5177029526,55.7798321155,41.8115293337
							12.5177033988,55.7798320892,41.8136970763
							12.5177037554,55.7798320445,41.8231874106
							12.5177041441,55.7798319959,41.8346127809
							12.5177046323,55.7798319828,41.8356801301
							12.5177051252,55.7798318443,41.8438182850
							12.5177055302,55.7798317590,41.8262032347
							12.5177059715,55.7798317043,41.8116484075
							12.5177061342,55.7798316898,41.7910806018
							12.5177063609,55.7798315800,41.7835296178
							12.5177064434,55.7798315423,41.7698030646
							12.5177065630,55.7798314587,41.7722029427
							12.5177064669,55.7798314975,41.7620268794
							12.5177064884,55.7798315610,41.7567117538
							12.5177066168,55.7798316450,41.7462223404
							12.5177066375,55.7798317185,41.7317985078
							12.5177066682,55.7798317053,41.7373249777
							12.5177068393,55.7798317201,41.7378638919
							12.5177071023,55.7798316140,41.7409314982
							12.5177074052,55.7798314821,41.7629383666
							12.5177076300,55.7798313705,41.7738057468
							12.5177077992,55.7798312878,41.7853639835
							12.5177077817,55.7798311995,41.7979212926
							12.5177076874,55.7798311635,41.7948038130
							12.5177078839,55.7798310166,41.8157501793
							12.5177077708,55.7798310080,41.8185569478
							12.5177076670,55.7798310095,41.8195787534
							12.5177076150,55.7798310183,41.8208142407
							12.5177075969,55.7798310654,41.8164604679
							12.5177075809,55.7798310994,41.8101198262
							12.5177076060,55.7798311315,41.8096906719
							12.5177076656,55.7798311542,41.8125994055
							12.5177077317,55.7798310701,41.8219940013
							12.5177078400,55.7798310588,41.8309878346
							12.5177078610,55.7798310625,41.8339075690
							12.5177079116,55.7798310136,41.8375650529
							12.5177077001,55.7798309462,41.8433625171
							12.5177069565,55.7798309501,41.8538204089
							12.5177067637,55.7798309008,41.8755484328
							12.5177065483,55.7798307982,41.8910641594
							12.5177061376,55.7798305920,41.9044846473
							12.5177057366,55.7798306062,41.9020877337
							12.5177050710,55.7798309623,41.8957370056
							12.5177039931,55.7798311481,41.9129912786
							12.5177029605,55.7798312937,41.9118443351
							12.5177027853,55.7798314441,41.9172621060
							12.5177025345,55.7798313673,41.9238170855
							12.5177021899,55.7798311172,41.9405693907
							12.5177016801,55.7798310217,41.9648155141
							12.5177013537,55.7798309618,41.9852131312
							12.5177012851,55.7798309150,42.0023948052
							12.5177011203,55.7798309956,42.0038216511
							12.5177014206,55.7798310428,42.0147022709
							12.5177017268,55.7798310540,42.0247660221
							12.5177022151,55.7798308693,42.0463486013
							12.5177025255,55.7798307512,42.0507043747
							12.5177029177,55.7798306671,42.0481267878
							12.5177031877,55.7798306311,42.0419741811
							12.5177036014,55.7798307733,42.0261615580
							12.5177034886,55.7798309867,42.0155571413
							12.5177029421,55.7798309353,42.0097893234
							12.5177024972,55.7798308839,42.0089107843
							12.5177025799,55.7798308726,42.0066978516
							12.5177024514,55.7798309392,41.9960821115
							12.5177026025,55.7798309543,41.9941546079
							12.5177025122,55.7798311812,41.9825536720
							12.5177027503,55.7798314091,41.9799076096
							12.5177027483,55.7798315479,41.9774521883
							12.5177026014,55.7798316313,41.9691252814
							12.5177019718,55.7798319839,41.9428884584
							12.5177013965,55.7798324951,41.9075152549
							12.5177013573,55.7798331761,41.8937951666
							12.5177004264,55.7798335429,41.8731761493
							12.5176997572,55.7798339315,41.8628474817
							12.5176996212,55.7798341451,41.8683875421
							12.5176993445,55.7798341122,41.8765207493
							12.5176995691,55.7798339706,41.8807826743
							12.5176995287,55.7798337791,41.8724193823
							12.5176999356,55.7798336380,41.8732038280
							12.5177000467,55.7798333707,41.8590915325
							12.5177002327,55.7798329326,41.8505556562
							12.5177005806,55.7798326303,41.8302402733
							12.5177008168,55.7798324669,41.8190907065
							12.5177014513,55.7798324836,41.8075486997
							12.5177021541,55.7798325177,41.7976135699
							12.5177026347,55.7798330223,41.7692132832
							12.5177030784,55.7798335693,41.7440572222
							12.5177034536,55.7798338326,41.7190157670
							12.5177040184,55.7798338521,41.6990885514
							12.5177047974,55.7798338502,41.6955697174
							12.5177056383,55.7798338956,41.6796791722
							12.5177065736,55.7798340087,41.6792656216
							12.5177070470,55.7798341319,41.6711900117
							12.5177071545,55.7798342927,41.6603091978
							12.5177069071,55.7798343731,41.6443223850
							12.5177067734,55.7798344762,41.6329150549
							12.5177067148,55.7798345774,41.6187986000
							12.5177070183,55.7798345365,41.6159864561
							12.5177071605,55.7798346061,41.6007855113
							12.5177072722,55.7798346111,41.5900687915
							12.5177075543,55.7798346446,41.5858885660
							12.5177077890,55.7798346607,41.5607373249
							12.5177080358,55.7798346941,41.5343489731
							12.5177082886,55.7798347940,41.5156616069
							12.5177085583,55.7798348345,41.5032840215
							12.5177087374,55.7798348327,41.4921001957
							12.5177089053,55.7798348170,41.4951530609
							12.5177087137,55.7798347819,41.4896733361
							12.5177085124,55.7798347889,41.4786521790
							12.5177084171,55.7798347038,41.4726201688
							12.5177082538,55.7798347080,41.4722005631
							12.5177081696,55.7798346573,41.4669942984
							12.5177080107,55.7798345942,41.4713408815
							12.5177080574,55.7798346212,41.4580217937
							12.5177081537,55.7798345396,41.4538410031
							12.5177085197,55.7798344273,41.4689315968
							12.5177087648,55.7798344541,41.4662185110
							12.5177091238,55.7798344966,41.4555827633
							12.5177094496,55.7798344819,41.4611891397
							12.5177098437,55.7798345828,41.4538082496
							12.5177101009,55.7798346314,41.4501092946
							12.5177101942,55.7798346515,41.4433859897
							12.5177102511,55.7798347279,41.4361239359
							12.5177103373,55.7798347119,41.4353849260
							12.5177106769,55.7798345943,41.4450538718
							12.5177107077,55.7798345375,41.4552280339
							12.5177109217,55.7798344356,41.4643174708
							12.5177107402,55.7798343711,41.4720363896
							12.5177109802,55.7798342651,41.4749440983
							12.5177109835,55.7798342129,41.4743603574
							12.5177111367,55.7798342678,41.4737597081
							12.5177114719,55.7798343950,41.4740889737
							12.5177117479,55.7798343622,41.4766187606
							12.5177115264,55.7798336957,41.4878651674
							12.5177114528,55.7798326460,41.5197477795
							12.5177113428,55.7798318074,41.5482073038
							12.5177113690,55.7798310873,41.5694036111
							12.5177118256,55.7798307644,41.5947617937
							12.5177120972,55.7798300293,41.6150136272
							12.5177119685,55.7798298218,41.6065472508
							12.5177119860,55.7798301747,41.6226354366
							12.5177118543,55.7798307032,41.6225795336
							12.5177118685,55.7798311574,41.6133966735
							12.5177122203,55.7798313271,41.6048662586
							12.5177125633,55.7798314495,41.5936101503
							12.5177130451,55.7798315697,41.5953821907
							12.5177135804,55.7798314578,41.6011643053
							12.5177141312,55.7798310927,41.6167428609
							12.5177147464,55.7798305999,41.6471867128
							12.5177148823,55.7798300795,41.6646025641
							12.5177150067,55.7798296157,41.7074288201
							12.5177149484,55.7798292708,41.7616096964
							12.5177147540,55.7798291852,41.7924468999
							12.5177148071,55.7798289670,41.8271670060
							12.5177151429,55.7798288664,41.8597835002
							12.5177155641,55.7798287260,41.8958793982
							12.5177162048,55.7798285830,41.9264097848
							12.5177168464,55.7798284561,41.9428756049
							12.5177173134,55.7798284637,41.9482560003
							12.5177177098,55.7798283120,41.9625666687
							12.5177179942,55.7798280818,41.9758578768
							12.5177183322,55.7798277976,41.9918125793
							12.5177186109,55.7798276040,42.0019301535
							12.5177189306,55.7798273109,42.0304994763
							12.5177192032,55.7798270641,42.0416297108
							12.5177194072,55.7798269061,42.0523778245
							12.5177204127,55.7798268228,42.0709433796
							12.5177207812,55.7798267324,42.0727707230
							12.5177212312,55.7798265324,42.0720954718
							12.5177217713,55.7798263207,42.0630259495
							12.5177218903,55.7798263738,42.0432957384
							12.5177221287,55.7798263350,42.0310299405
							12.5177221227,55.7798262763,42.0217602461
							12.5177222685,55.7798262993,42.0072483985
							12.5177222420,55.7798262733,42.0226943327
							12.5177222674,55.7798262598,42.0364615821
							12.5177224581,55.7798261867,42.0429128116
							12.5177224887,55.7798260972,42.0570237537
							12.5177229287,55.7798259112,42.0676860012
							12.5177231627,55.7798257490,42.0668389278
							12.5177234043,55.7798256221,42.0659958283
							12.5177236867,55.7798255516,42.0556344922
							12.5177239402,55.7798254651,42.0378099373
							12.5177242938,55.7798254175,42.0171403091
							12.5177245920,55.7798254248,41.9891789130
							12.5177248045,55.7798255974,41.9644606465
							12.5177251624,55.7798256494,41.9300163169
							12.5177254685,55.7798257497,41.9021950267
							12.5177255534,55.7798258280,41.8776904284
							12.5177256155,55.7798258534,41.8662427286
							12.5177256177,55.7798259492,41.8444625359
							12.5177254341,55.7798261205,41.8354225387
							12.5177252280,55.7798262513,41.8347922874
							12.5177251826,55.7798262947,41.8245301769
							12.5177249827,55.7798263628,41.8174847761
							12.5177247611,55.7798264865,41.8127625648
							12.5177245373,55.7798266790,41.8016494490
							12.5177242170,55.7798269118,41.7792489651
							12.5177238456,55.7798271455,41.7627360611
							12.5177236522,55.7798272641,41.7529120889
							12.5177233710,55.7798273593,41.7534628395
							12.5177232288,55.7798273940,41.7431913544
							12.5177230940,55.7798274590,41.7347216403
							12.5177228150,55.7798275859,41.7319789913
							12.5177226060,55.7798278552,41.7250785383
							12.5177223022,55.7798281352,41.6976807184
							12.5177220886,55.7798284817,41.6842801686
							12.5177219972,55.7798287547,41.6633778062
							12.5177222106,55.7798295254,41.6483152171
							12.5177232239,55.7798309152,41.6131226104
							12.5177245533,55.7798327016,41.5614948010
							12.5177255749,55.7798340962,41.5014839918
							12.5177262634,55.7798354435,41.4418776347
							12.5177264930,55.7798363973,41.3813017813
							12.5177265460,55.7798373214,41.3254072304
							12.5177261277,55.7798379889,41.2727423878
							12.5177253934,55.7798388417,41.2285356753
							12.5177245682,55.7798395047,41.1836129340
							12.5177235360,55.7798403284,41.1267694875
							12.5177225867,55.7798412993,41.0558917451
							12.5177216876,55.7798423458,40.9754375980
							12.5177208986,55.7798432601,40.8945506108
							12.5177202237,55.7798440703,40.7931227827
							12.5177196313,55.7798443839,40.7230762836
							12.5177192395,55.7798443317,40.6932469513
							12.5177187079,55.7798442311,40.6698733265
							12.5177185099,55.7798440738,40.6506557937
							12.5177183605,55.7798437432,40.6441879259
							12.5177180461,55.7798434924,40.6300188026
							12.5177179439,55.7798430064,40.6270526790
							12.5177180417,55.7798423702,40.6358054420
							12.5177181158,55.7798417757,40.6402519170
							12.5177180630,55.7798413310,40.6325365930
							12.5177179066,55.7798409567,40.6257235553
							12.5177175886,55.7798407800,40.5976152995
							12.5177170772,55.7798407011,40.5692329769
							12.5177169692,55.7798405477,40.5653616535
							12.5177165825,55.7798405464,40.5458474944
							12.5177164678,55.7798403372,40.5496435648
							12.5177164888,55.7798401909,40.5464519923
							12.5177164810,55.7798400550,40.5525939489
							12.5177163323,55.7798399718,40.5594051355
							12.5177163016,55.7798399055,40.5498402990
							12.5177162874,55.7798398977,40.5463001924
							12.5177161303,55.7798399243,40.5269356904
							12.5177159976,55.7798399111,40.5216462525
							12.5177159221,55.7798397994,40.5250698287
							12.5177161829,55.7798394940,40.5523747050
							12.5177162513,55.7798391263,40.5904334213
							12.5177162858,55.7798389434,40.6082086017
							12.5177164311,55.7798385103,40.6634352313
							12.5177164121,55.7798381817,40.7154915194
							12.5177162144,55.7798379802,40.7603227844
							12.5177160111,55.7798379555,40.7812518265
							12.5177156064,55.7798380608,40.8014788221
							12.5177152913,55.7798381341,40.8049026331
							12.5177149330,55.7798382851,40.7991401861
							12.5177147752,55.7798383481,40.7935815974
							12.5177146910,55.7798382758,40.7980977154
							12.5177146207,55.7798381471,40.8073106348
							12.5177144725,55.7798379226,40.8088978710
							12.5177145424,55.7798376134,40.8257627539
							12.5177145516,55.7798373020,40.8518480294
							12.5177144520,55.7798370761,40.8769224881
							12.5177143949,55.7798368553,40.9006487381
							12.5177144034,55.7798365794,40.9303767610
							12.5177143245,55.7798364472,40.9538328420
							12.5177141405,55.7798364066,40.9607458677
							12.5177139877,55.7798364186,40.9668094475
							12.5177138477,55.7798364160,40.9670320353
							12.5177137647,55.7798363035,40.9790201798
							12.5177139058,55.7798360687,40.9855364897
							12.5177133030,55.7798355493,40.9950221761
							12.5177126195,55.7798344718,40.9971825042
							12.5177121524,55.7798330202,41.0273679433
							12.5177119697,55.7798318183,41.0543396113
							12.5177121453,55.7798307930,41.0892112330
							12.5177122889,55.7798297219,41.1414259192
							12.5177125067,55.7798288030,41.1900712862
							12.5177126355,55.7798280746,41.2253804683
							12.5177129829,55.7798275146,41.2536648348
							12.5177134063,55.7798269290,41.2768287848
							12.5177140366,55.7798266082,41.3004683353
							12.5177145944,55.7798264306,41.3134564795
							12.5177151298,55.7798263099,41.3216091831
							12.5177158094,55.7798263083,41.3303905644
							12.5177164219,55.7798262444,41.3327285104
							12.5177170469,55.7798261772,41.3307130184
							12.5177176086,55.7798262456,41.3308915128
							12.5177181876,55.7798262783,41.3318548447
							12.5177188162,55.7798263102,41.3479244079
							12.5177192932,55.7798264817,41.3484096319
							12.5177196384,55.7798266279,41.3539912003
							12.5177199882,55.7798267006,41.3638031246
							12.5177201363,55.7798268003,41.3741112656
							12.5177204907,55.7798267483,41.3861665294
							12.5177207386,55.7798266744,41.4171222022
							12.5177210684,55.7798266072,41.4220500299
							12.5177214156,55.7798264877,41.4485238936
							12.5177215124,55.7798264154,41.4680571533
							12.5177216637,55.7798264159,41.4879025422
							12.5177217390,55.7798265041,41.5015403785
							12.5177217966,55.7798266416,41.4995944189
							12.5177220376,55.7798272265,41.5224786186
							12.5177224358,55.7798283257,41.5232921268
							12.5177226280,55.7798297355,41.5137453329
							12.5177224144,55.7798308908,41.5096152242
							12.5177221584,55.7798317082,41.4996239716
							12.5177218714,55.7798320626,41.4898889081
							12.5177215691,55.7798323619,41.4780739927
							12.5177213586,55.7798328428,41.4525487469
							12.5177210990,55.7798331913,41.4438501150
							12.5177206779,55.7798336163,41.4387422385
							12.5177208263,55.7798339777,41.4247344851
							12.5177206314,55.7798342736,41.4204614552
							12.5177202034,55.7798343356,41.4140808595
							12.5177198694,55.7798341934,41.4228060702
							12.5177196444,55.7798339841,41.4312202709
							12.5177195131,55.7798337215,41.4445342270
							12.5177195197,55.7798333655,41.4709178599
							12.5177193741,55.7798331199,41.4830552994
							12.5177195071,55.7798328019,41.5134769136
							12.5177192939,55.7798319544,41.5354441122
							12.5177189058,55.7798310527,41.5748561499
							12.5177188157,55.7798304412,41.6106320623
							12.5177190676,55.7798301120,41.6537475218
							12.5177194036,55.7798297354,41.6837342691
							12.5177195855,55.7798294742,41.7122849896
							12.5177196084,55.7798290694,41.7269497661
							12.5177198851,55.7798289085,41.7437430303
							12.5177200613,55.7798286559,41.7626943095
							12.5177202735,55.7798285540,41.7728691418
							12.5177205451,55.7798282270,41.8047872107
							12.5177207190,55.7798277606,41.8328810679
							12.5177209041,55.7798272067,41.8581858580
							12.5177210956,55.7798266142,41.8938430256
							12.5177213816,55.7798261074,41.9265755453
							12.5177214567,55.7798256888,41.9683546075
							12.5177210601,55.7798244676,42.0080343916
							12.5177209461,55.7798237547,42.0580032065
							12.5177212578,55.7798237015,42.0817477547
							12.5177213609,55.7798236894,42.1102681691
							12.5177214596,55.7798234965,42.1419711527
							12.5177215176,55.7798234733,42.1527907347
							12.5177214951,55.7798234028,42.1660407925
							12.5177213509,55.7798232559,42.1777800475
							12.5177213878,55.7798231424,42.2030258801
							12.5177215364,55.7798228050,42.2308898859
							12.5177218063,55.7798223852,42.2639699884
							12.5177219535,55.7798220838,42.2932790431
							12.5177222070,55.7798218559,42.3294210422
							12.5177223056,55.7798215724,42.3718569894
							12.5177223423,55.7798213397,42.4106520263
							12.5177223478,55.7798210883,42.4407290457
							12.5177222360,55.7798210661,42.4638624796
							12.5177222705,55.7798210401,42.4866134074
							12.5177225525,55.7798209965,42.5086066740
							12.5177228758,55.7798210200,42.5310915663
							12.5177230977,55.7798211041,42.5458467686
							12.5177231472,55.7798212171,42.5606450262
							12.5177229445,55.7798213452,42.5634439966
							12.5177226210,55.7798214341,42.5804131201
							12.5177223693,55.7798215015,42.5984330423
							12.5177222076,55.7798215476,42.6133857592
							12.5177221680,55.7798216211,42.6309113664
							12.5177221223,55.7798217154,42.6386002345
							12.5177218887,55.7798219139,42.6375868882
							12.5177216669,55.7798220410,42.6570867274
							12.5177215139,55.7798222712,42.6523434068
							12.5177213385,55.7798224119,42.6547254489
							12.5177212089,55.7798225411,42.6535752738
							12.5177210568,55.7798226496,42.6481013414
							12.5177210914,55.7798227832,42.6507157279
							12.5177211487,55.7798228815,42.6481042430
							12.5177211284,55.7798228288,42.6574907226
							12.5177211387,55.7798227872,42.6650068656
							12.5177211960,55.7798227162,42.6781018752
							12.5177210667,55.7798226779,42.6882875453
							12.5177209944,55.7798226512,42.6932591633
							12.5177211264,55.7798226338,42.7042869872
							12.5177210823,55.7798226465,42.7047918569
							12.5177212322,55.7798226285,42.7240091457
							12.5177213039,55.7798226933,42.7250070380
							12.5177212502,55.7798228564,42.7152600683
							12.5177213787,55.7798229770,42.7182006328
							12.5177213624,55.7798230815,42.7143340994
							12.5177215962,55.7798231785,42.7078019693
							12.5177217157,55.7798231583,42.7075914486
							12.5177216450,55.7798232396,42.7058271924
							12.5177216831,55.7798232517,42.7086969330
							12.5177219523,55.7798231574,42.7166266921
							12.5177220648,55.7798230638,42.7227012739
							12.5177222263,55.7798230009,42.7329926041
							12.5177224157,55.7798229923,42.7304657895
							12.5177225223,55.7798230636,42.7222942389
							12.5177226897,55.7798231487,42.7120686752
							12.5177227959,55.7798231911,42.7069384754
							12.5177226993,55.7798232789,42.7053050504
							12.5177225096,55.7798233738,42.6935901029
							12.5177224882,55.7798234232,42.6798498351
							12.5177224285,55.7798234365,42.6729066328
							12.5177224896,55.7798234386,42.6639754404
							12.5177224043,55.7798235184,42.6573304647
							12.5177222854,55.7798235533,42.6524461632
							12.5177222490,55.7798235047,42.6520400728
							12.5177220718,55.7798234875,42.6498687559
							12.5177219879,55.7798235193,42.6380347775
							12.5177218666,55.7798236014,42.6279986396
							12.5177218565,55.7798237054,42.6275576491
							12.5177218284,55.7798237539,42.6224342652
							12.5177218642,55.7798237762,42.6344749997
							12.5177217391,55.7798238333,42.6229418949
							12.5177217527,55.7798238629,42.6176743197
							12.5177218009,55.7798239229,42.6167206952
							12.5177218596,55.7798239375,42.6120131524
							12.5177217099,55.7798240073,42.6009039208
							12.5177216837,55.7798239888,42.6097563815
							12.5177215766,55.7798240043,42.6078705460
							12.5177215671,55.7798240504,42.6103005406
							12.5177213890,55.7798240313,42.6113928773
							12.5177213121,55.7798240423,42.6176292393
							12.5177212528,55.7798239810,42.6311946550
							12.5177213721,55.7798239131,42.6336251318
							12.5177212777,55.7798238086,42.6389724827
							12.5177214354,55.7798236489,42.6547954124
							12.5177213946,55.7798235256,42.6677437405
							12.5177213778,55.7798233956,42.6736226439
							12.5177213699,55.7798233004,42.6906152987
							12.5177213551,55.7798232273,42.6952364097
							12.5177213112,55.7798231761,42.6991084461
							12.5177213858,55.7798231173,42.7133164991
							12.5177214760,55.7798231320,42.7330775539
							12.5177213168,55.7798232132,42.7260736482
							12.5177214108,55.7798232922,42.7177686446
							12.5177213721,55.7798233936,42.7067472941
							12.5177214481,55.7798234403,42.7139152964
							12.5177213765,55.7798234789,42.7119566792
							12.5177213739,55.7798235600,42.7035987226
							12.5177215169,55.7798236447,42.7016147620
							12.5177215596,55.7798236148,42.6987559125
							12.5177216838,55.7798236256,42.7017815671
							12.5177218750,55.7798235431,42.7069303963
							12.5177221553,55.7798234431,42.7116713452
							12.5177223192,55.7798234091,42.7261397931
							12.5177225486,55.7798233148,42.7191881149
							12.5177227343,55.7798232292,42.7201826339
							12.5177230287,55.7798230744,42.7314062419
							12.5177234684,55.7798223000,42.7384001976
							12.5177239289,55.7798215313,42.7512554554
							12.5177245891,55.7798208786,42.7803341694
							12.5177253850,55.7798202354,42.7967293490
							12.5177262167,55.7798196680,42.7997114916
							12.5177270919,55.7798192330,42.8116257342
							12.5177277549,55.7798189875,42.8258080306
							12.5177284650,55.7798189679,42.8347168160
							12.5177287420,55.7798190457,42.8324358110
							12.5177289781,55.7798190649,42.8307102649
							12.5177293156,55.7798190934,42.8268248105
							12.5177296606,55.7798191336,42.8305792307
							12.5177300166,55.7798193132,42.8368999679
							12.5177302689,55.7798194619,42.8411631344
							12.5177304810,55.7798195992,42.8480212059
							12.5177303089,55.7798197320,42.8606980368
							12.5177305712,55.7798197015,42.8817897090
							12.5177307274,55.7798198464,42.8974627126
							12.5177309821,55.7798200830,42.9152881673
							12.5177313848,55.7798202300,42.9312070616
							12.5177316769,55.7798204033,42.9445900137
							12.5177318961,55.7798205235,42.9627963213
							12.5177321147,55.7798206068,42.9773997667
							12.5177323222,55.7798207049,42.9875629082
							12.5177325429,55.7798208580,42.9905454631
							12.5177327592,55.7798209063,42.9983022572
							12.5177329752,55.7798208319,42.9999955896
							12.5177333413,55.7798207972,43.0059498247
							12.5177334841,55.7798207292,43.0082436598
							12.5177335158,55.7798206569,43.0112985539
							12.5177337855,55.7798204504,43.0193821672
							12.5177338996,55.7798203035,43.0258162868
							12.5177339398,55.7798201757,43.0193323995
							12.5177339052,55.7798201921,43.0280043215
							12.5177340153,55.7798201756,43.0264475321
							12.5177339093,55.7798202774,43.0238961109
							12.5177338972,55.7798203341,43.0140149606
							12.5177335841,55.7798204877,43.0047462750
							12.5177335441,55.7798206648,43.0111992125
							12.5177333334,55.7798208912,43.0043402116
							12.5177330765,55.7798210866,42.9921905753
							12.5177328700,55.7798213052,42.9830578641
							12.5177326747,55.7798214616,42.9688549738
							12.5177326023,55.7798216290,42.9425400683
							12.5177323457,55.7798217651,42.9303340479
							12.5177321878,55.7798218624,42.9260793957
							12.5177321845,55.7798219217,42.9183032313
							12.5177319586,55.7798220404,42.9143845213
							12.5177317919,55.7798221592,42.9015332989
							12.5177314284,55.7798222060,42.8934877918
							12.5177310818,55.7798222068,42.8793598319
							12.5177307571,55.7798221015,42.8670079921
							12.5177303131,55.7798220472,42.8554447789
							12.5177302414,55.7798219415,42.8472818855
							12.5177300512,55.7798218211,42.8349165855
							12.5177299770,55.7798217542,42.8334676993
							12.5177300143,55.7798217502,42.8099745567
							12.5177300545,55.7798216496,42.7750343168
							12.5177302067,55.7798217081,42.7629705150
							12.5177299865,55.7798218327,42.7362615916
							12.5177296084,55.7798219188,42.7100432028
							12.5177295470,55.7798223033,42.6763157564
							12.5177296888,55.7798229147,42.6510697142
							12.5177294013,55.7798234743,42.6222183684
							12.5177290342,55.7798236263,42.6101127178
							12.5177284837,55.7798235840,42.5947692344
							12.5177281352,55.7798236151,42.5724240898
							12.5177280279,55.7798235424,42.5566021798
							12.5177281874,55.7798233577,42.5437119352
							12.5177283581,55.7798231611,42.5284759471
							12.5177283663,55.7798227647,42.5309536068
							12.5177283459,55.7798225123,42.5240382736
							12.5177283176,55.7798223317,42.5142603688
							12.5177285511,55.7798222246,42.5131703836
							12.5177286676,55.7798220857,42.5098663238
							12.5177286678,55.7798219329,42.5113785598
							12.5177286597,55.7798218458,42.5113532064
							12.5177285960,55.7798217270,42.5065506290
							12.5177283828,55.7798215636,42.5038463471
							12.5177282243,55.7798214674,42.4931986904
							12.5177283467,55.7798212801,42.4904470727
							12.5177283412,55.7798211907,42.4789989043
							12.5177283741,55.7798211746,42.4746073378
							12.5177283945,55.7798212630,42.4697091303
							12.5177284519,55.7798213946,42.4502209005
							12.5177286554,55.7798215146,42.4371303288
							12.5177287211,55.7798216540,42.4204200634
							12.5177289657,55.7798217656,42.4190000245
							12.5177292774,55.7798218105,42.4248065469
							12.5177295078,55.7798218627,42.4292585080
							12.5177297500,55.7798217759,42.4376686494
							12.5177299466,55.7798215592,42.4475364882
							12.5177301122,55.7798213831,42.4581744721
							12.5177303632,55.7798211874,42.4621164395
							12.5177304361,55.7798210404,42.4725607035
							12.5177304939,55.7798208698,42.4851643923
							12.5177306347,55.7798206856,42.4919810970
							12.5177306784,55.7798205188,42.4948847128
							12.5177306066,55.7798203452,42.4950832003
							12.5177305028,55.7798202354,42.4867982446
							12.5177305752,55.7798200265,42.4978491593
							12.5177304441,55.7798198933,42.5081034726
							12.5177303308,55.7798197787,42.5109888675
							12.5177302767,55.7798197011,42.5152812395
							12.5177300682,55.7798196367,42.5293112466
							12.5177297842,55.7798196520,42.5305113911
							12.5177297277,55.7798196551,42.5507041454
							12.5177294805,55.7798196930,42.5453907789
							12.5177292127,55.7798197721,42.5486616672
							12.5177289949,55.7798199291,42.5398501108
							12.5177286815,55.7798200888,42.5177129584
							12.5177284626,55.7798209048,42.5000121540
							12.5177279957,55.7798211817,42.4825045005
							12.5177277548,55.7798215282,42.4611977282
							12.5177274460,55.7798214798,42.4479517759
							12.5177272224,55.7798215075,42.4319867192
							12.5177265438,55.7798216181,42.4228606347
							12.5177256923,55.7798214995,42.4174154790
							12.5177247693,55.7798213876,42.4156311989
							12.5177244128,55.7798215398,42.4040095908
							12.5177242448,55.7798216462,42.3984668895
							12.5177240197,55.7798219040,42.3957964770
							12.5177237669,55.7798221663,42.4052873721
							12.5177236208,55.7798225204,42.4082240846
							12.5177233111,55.7798227193,42.4177237955
							12.5177228300,55.7798227705,42.4304788502
							12.5177225667,55.7798228328,42.4455735165
							12.5177223732,55.7798230052,42.4486389703
							12.5177222004,55.7798231974,42.4545224471
							12.5177218761,55.7798234258,42.4560298829
							12.5177217987,55.7798235056,42.4692432273
							12.5177217033,55.7798236124,42.4801348200
							12.5177216465,55.7798236015,42.4811846139
							12.5177214290,55.7798235063,42.4950689164
							12.5177213848,55.7798233793,42.5057552533
							12.5177212508,55.7798232608,42.5181638154
							12.5177209497,55.7798232170,42.5330173105
							12.5177204869,55.7798229453,42.5469341455
							12.5177199963,55.7798227841,42.5645492066
							12.5177196757,55.7798226067,42.5861009160
							12.5177179080,55.7798218338,42.6197143357
							12.5177167632,55.7798210960,42.6491562100
							12.5177159514,55.7798202597,42.6776828215
							12.5177153872,55.7798197393,42.7221604801
							12.5177148122,55.7798196810,42.7483240311
							12.5177144391,55.7798196786,42.7700912990
							12.5177139773,55.7798200524,42.7789198656
							12.5177136960,55.7798205325,42.7944310095
							12.5177146549,55.7798208029,42.8029617440
							12.5177149359,55.7798212054,42.7998145743
							12.5177151544,55.7798216774,42.7884937455
							12.5177154312,55.7798219443,42.7656985689
							12.5177158547,55.7798217952,42.7625068216
							12.5177160490,55.7798217279,42.7514585360
							12.5177160504,55.7798219450,42.7353638772
							12.5177159515,55.7798220445,42.7333694972
							12.5177158768,55.7798223090,42.7343720781
							12.5177156988,55.7798227367,42.7302446146
							12.5177153235,55.7798229405,42.7340879215
							12.5177149061,55.7798231487,42.7398453734
							12.5177146060,55.7798232260,42.7369600209
							12.5177143155,55.7798233364,42.7453398664
							12.5177141899,55.7798233030,42.7540427502
							12.5177143016,55.7798232408,42.7812626624
							12.5177143350,55.7798232247,42.8013847192
							12.5177139793,55.7798233300,42.8185898141
							12.5177138092,55.7798233611,42.8404002481
							12.5177135459,55.7798234026,42.8565664911
							12.5177133195,55.7798235833,42.8615802700
							12.5177130725,55.7798237025,42.8839216824
							12.5177129915,55.7798237915,42.8953519143
							12.5177128448,55.7798238989,42.9029802400
							12.5177126261,55.7798240244,42.9023367781
							12.5177126638,55.7798240924,42.8957408300
							12.5177126511,55.7798240657,42.8983410678
							12.5177129317,55.7798240387,42.9058499938
							12.5177131624,55.7798240557,42.9030040755
							12.5177132270,55.7798241276,42.9051218313
							12.5177134560,55.7798242002,42.9058822846
							12.5177136887,55.7798244617,42.9139928795
							12.5177138345,55.7798246836,42.9145334993
							12.5177139836,55.7798249638,42.9114188783
							12.5177141550,55.7798252102,42.9107457535
							12.5177143868,55.7798254270,42.9276116495
							12.5177145138,55.7798256238,42.9297669286
							12.5177146260,55.7798256868,42.9411402188
							12.5177147519,55.7798256343,42.9632353607
							12.5177147158,55.7798256408,42.9878572055
							12.5177146325,55.7798256767,43.0061461130
							12.5177144258,55.7798257250,43.0096038069
							12.5177142366,55.7798258137,43.0210049610
							12.5177141048,55.7798259454,43.0239732175
							12.5177138886,55.7798260967,43.0124321056
							12.5177136086,55.7798263052,43.0063489930
							12.5177133067,55.7798265153,42.9930574955
							12.5177131293,55.7798266939,42.9862153170
							12.5177127935,55.7798268136,42.9703138110
							12.5177127885,55.7798268290,42.9683726373
							12.5177127278,55.7798268176,42.9747753108
							12.5177125697,55.7798267906,42.9867433419
							12.5177125063,55.7798267705,42.9861710983
							12.5177125068,55.7798267853,42.9939350291
							12.5177126089,55.7798267965,43.0055359797
							12.5177126595,55.7798268303,43.0112735194
							12.5177126068,55.7798269430,43.0125162469
							12.5177128899,55.7798276004,43.0190874971
							12.5177131593,55.7798280983,43.0311724782
							12.5177135106,55.7798283929,43.0388871833
							12.5177142427,55.7798287588,43.0506564752
							12.5177147014,55.7798289564,43.0576655187
							12.5177147790,55.7798290435,43.0690215644
							12.5177148454,55.7798288115,43.0718277761
							12.5177144376,55.7798281193,43.0872148545
							12.5177136428,55.7798273166,43.1033212190
							12.5177127332,55.7798266847,43.1245843893
							12.5177118602,55.7798261826,43.1399900428
							12.5177110170,55.7798259681,43.1530598976
							12.5177102337,55.7798261597,43.1582174806
							12.5177095022,55.7798264592,43.1471497847
							12.5177089916,55.7798268846,43.1363761208
							12.5177084677,55.7798274506,43.1141091993
							12.5177080161,55.7798280529,43.0931566098
							12.5177075612,55.7798286120,43.0646659499
							12.5177071597,55.7798292122,43.0237875430
							12.5177070623,55.7798295500,42.9966134372
							12.5177072391,55.7798297797,42.9787046649
							12.5177073485,55.7798298309,42.9638307390
							12.5177076234,55.7798297299,42.9572753474
							12.5177079133,55.7798295976,42.9551878464
							12.5177081838,55.7798293710,42.9546674663
							12.5177085567,55.7798290558,42.9754139320
							12.5177088445,55.7798286034,42.9805626796
							12.5177088385,55.7798282344,42.9923465994
							12.5177087974,55.7798280231,42.9908550925
							12.5177087533,55.7798277956,42.9890615808
							12.5177088284,55.7798275811,42.9873319417
							12.5177088848,55.7798273282,42.9983561302
							12.5177089543,55.7798271720,42.9981793123
							12.5177088762,55.7798272048,42.9934456008
							12.5177087864,55.7798272650,42.9975122002
							12.5177086182,55.7798274262,42.9783131190
							12.5177083690,55.7798275503,42.9688941925
							12.5177081806,55.7798276625,42.9489140177
							12.5177081686,55.7798277477,42.9378971912
							12.5177081487,55.7798278360,42.9289407459
							12.5177080420,55.7798278642,42.9304210130
							12.5177078812,55.7798278504,42.9102376643
							12.5177078729,55.7798278469,42.8911077147
							12.5177078723,55.7798277490,42.8808900605
							12.5177079250,55.7798275802,42.8769889380
							12.5177077698,55.7798275477,42.8639872166
							12.5177078873,55.7798273862,42.8687545170
							12.5177080296,55.7798272832,42.8691273357
							12.5177081504,55.7798271867,42.8724666240
							12.5177083182,55.7798268679,42.8742313322
							12.5177079049,55.7798262534,42.8664852796
							12.5177079820,55.7798257678,42.8763981328
							12.5177080882,55.7798253566,42.8827614789
							12.5177086392,55.7798249643,42.8933668529
							12.5177095302,55.7798243980,42.9135409854
							12.5177105326,55.7798239994,42.9248857274
							12.5177111495,55.7798238485,42.9270063597
							12.5177115263,55.7798237127,42.9247344749
							12.5177118487,55.7798238309,42.9132831833
							12.5177119122,55.7798239851,42.9055110556
							12.5177121124,55.7798240075,42.9029203337
							12.5177120862,55.7798241137,42.8859646353
							12.5177124549,55.7798240247,42.8662432383
							12.5177127560,55.7798240722,42.8360867122
							12.5177131420,55.7798239691,42.8272111275
							12.5177135114,55.7798238776,42.8104126589
							12.5177133678,55.7798239453,42.8193653358
							12.5177132697,55.7798240207,42.8304650626
							12.5177131272,55.7798241270,42.8399055741
							12.5177127736,55.7798244019,42.8509728575
							12.5177128143,55.7798244875,42.8431733192
							12.5177137045,55.7798243412,42.8116841148
							12.5177147559,55.7798241482,42.7695574712
							12.5177155343,55.7798236489,42.7293207557
							12.5177157187,55.7798231200,42.7153551292
							12.5177153126,55.7798227926,42.7203229337
							12.5177146380,55.7798224946,42.7445388034
							12.5177139194,55.7798222195,42.7840592751

<!-- Writting trailer -->

						</coordinates>
					<tessellate>1</tessellate>
				</LineString>
			</MultiGeometry>
			<description>
<![CDATA[<span style="color:#222222;"><b>-First Epoch:</b></span><br>TOW=[376351000ms]<br>PVT Mode=6<br>NrSv=32<br> 	BaseStationID=121<br>meanCorrAge=267<br>]]><![CDATA[<br>]]>
<![CDATA[<span style="color:#222222;"><b>-Last Epoch:</b></span><br>TOW=[377336000ms]<br>PVT Mode=6<br>NrSv=26<br> 	BaseStationID=121<br>meanCorrAge=183<br>]]><![CDATA[<br>]]>

			</description>
		</Placemark>

<!-- Writting end of PVT section in KML -->
		<Placemark>
			<name>END</name>
				<LookAt>
					<longitude>12.517714</longitude>
					<latitude>55.779822</latitude>
					<altitude>42.784059</altitude>
				</LookAt>
			<TimeStamp>2026-03-05T08:48:56Z</TimeStamp>
			<Point>
				<coordinates>12.517714,55.779822,42.784059</coordinates>
				<altitudeMode>clampToGround</altitudeMode>
			</Point>
			<description>This the end of the whole logging track</description>
			<styleUrl>#end</styleUrl>
		</Placemark>
	</Folder>

<!-- Create folders for Events (0) -->

<!-- Create folders for Attitude every 0 epochs (0) -->

<!-- Create folders for Satellite positions (0) -->

<!-- Create folders for BaseStation positions (0) -->

<!-- Write the trailer of file -->
	<Style id="gv_legend">
		<IconStyle>
			<Icon>
			<href><![CDATA[root://icons/palette-2.png?x=224&y=192&h=32&w=32]]></href>
			</Icon>
		</IconStyle>
	</Style>
	<Style id="end">
		<IconStyle>
			<Icon>
			<href><![CDATA[root://icons/palette-4.png?x=224&y=192&h=32&w=32]]></href>
			</Icon>
		</IconStyle>
	</Style>
	<Style id="start">
		<IconStyle>
			<Icon>
			<href><![CDATA[root://icons/palette-4.png?x=192&h=32&w=32]]></href>
			</Icon>
		</IconStyle>
	</Style>
	<Style id="error">
		<IconStyle>
			<scale>0.500000</scale>
			<Icon>
			<href><![CDATA[root://icons/palette-3.png?x=128&y=32&h=32&w=32]]></href>
			</Icon>
		</IconStyle>
		<LabelStyle>
			<scale>0.600000</scale>
		</LabelStyle>
	</Style>
	<Style id="extevnt">
		<IconStyle>
			<scale>0.500000</scale>
			<Icon>
			<href><![CDATA[root://icons/palette-2.png?x=64&y=192&h=32&w=32]]></href>
			</Icon>
		</IconStyle>
		<LabelStyle>
			<scale>0.600000</scale>
		</LabelStyle>
	</Style>
	<Style id="change">
		<scale>0.500000</scale>
		<IconStyle>
			<Icon>
			<href><![CDATA[http://maps.google.com/mapfiles/kml/pushpin/ltblu-pushpin.png]]></href>
			</Icon>
		</IconStyle>
	</Style>
	<Style id="change0">
		<scale>0.500000</scale>
		<IconStyle>
			<Icon>
			<href><![CDATA[http://maps.google.com/mapfiles/kml/pushpin/red-pushpin.png]]></href>
			</Icon>
		</IconStyle>
	</Style>
	<Style id="change3">
		<scale>0.500000</scale>
		<IconStyle>
			<Icon>
			<href><![CDATA[http://maps.google.com/mapfiles/kml/pushpin/grn-pushpin.png]]></href>
			</Icon>
		</IconStyle>
	</Style>
	<Style id="change2">
		<scale>0.500000</scale>
		<IconStyle>
			<Icon>
			<href><![CDATA[http://maps.google.com/mapfiles/kml/pushpin/ltblu-pushpin.png]]></href>
			</Icon>
		</IconStyle>
	</Style>
	</Document>
</kml>
